id,name,route,street,street2,zip,city,country_id/id,phone,fax,email,active,dest_contact,area_covered,note
partner_shipper_south_1,นครกรุงเทพสหการขนส่ง,south,ทวีวัฒนา,,,กรุงเทพฯ,base.th,"
02-887-0910-1, 02-448-1113, 02-887-2085",,,TRUE,,ประจวบคีรีขันธ์,
partner_shipper_south_2,ทรัพย์สมบูรณ์ทรัพย์,south,ถ.บางแวก,,,กรุงเทพฯ,base.th,"02-8872705, 4482874-5",,,TRUE,"เพชรบุรี 032-425853,427854
หัวหิน 01-4932270,09-7388494
ปราณบุรี 032-621448,01-9810238
ประจวบฯ032-603651,01-7638481",เพชรบุรี,
partner_shipper_south_3,ประพันธ์เพชรบุรี,south,สุขาภิบาล 2 ทวีวัฒนา,,,กรุงเทพฯ,base.th,,,,TRUE,032-425450,เพชรบุรี,
partner_shipper_south_4,กระบี่นครการขนส่ง,south,ถ.กาญจนาภิเษก  ตลิ่งชัน,,,กรุงเทพฯ,base.th,"02-8858746, 02-8858747, 02-8858748",,,TRUE,0-7563-2227,"กรุงเทพฯ สุราษฎร์ฯ นครศรี กระบี่ ตรัง
ทุ่งสง",
partner_shipper_south_5,หจก.ปรีดาภาคใต้ ขนส่ง,south,ถนนบางแวก ภาษีเจริญ,,,กรุงเทพฯ,base.th,"02-410-3420, 02-410-3160, 06-375-4853, 01-445-6094, 01-875-5577",,,TRUE,"0-7750-3351,0-7757-1358
0-6069-8810 หลังสวน 0-7754-1946
0-9669-6376",กรุงเทพฯ ชุมพร,
partner_shipper_south_6,สหขนส่งสายใต้ ,south,ถ.กาญจนาภิเษก ทวีวัฒนา,,,กรุงเทพฯ,base.th,02-885-9041-3,,,TRUE,"0-7750-1425,0-7751-1273",ชุมพร,
partner_shipper_south_7,โกล้วนขนส่ง,south,ถ.บางแวก บางแค,,,กรุงเทพฯ,base.th,"02-448-2898, 02-448-2937-8",,,TRUE,0-7521-2940,ตรัง กันตัง ห้วยยอด ย่านตาขาว ปะเหลี่ยน,
partner_shipper_south_8,อาร์เอทีขนส่ง,south,,,,กรุงเทพฯ,base.th,"02-889-4800, 01-597-5973, 01-535-7110",,,TRUE,0-7532-5241,กทม.-นครศรีธรรมราช,
partner_shipper_south_9,ทุ่งสงนครขนส่ง,south,ถ.บางแวก ภาษีเจริญ,,,กรุงเทพฯ,base.th,"02-4103118,02-4103119",,,TRUE,,นครศรีและทุ่งสง,
partner_shipper_south_10,สี่สหายขนส่ง,south,แขวงแสมดำ บางขุนเทียน,,,กรุงเทพฯ,base.th,02-451-6712-16,,,TRUE,,นครศรีธรรมราช,
partner_shipper_south_11,พรทรัพย์สว่างขนส่ง (เดิมทรัพย์ดวงพร),south,หมู่บ้านขุมทรัพย์นคร สาย 3,,,กรุงเทพฯ,base.th,"087-8947440, 081-5372582",,,TRUE,"081-5372582, 081-5371345","นครศรีธรรมราช จันดี ฉวาง ทานพอ ถ้ำพรรณรา บ้านส้อง
พิปูน นาบอน ทุ่งสง ทุ่งใหญ่ กะปาง",
partner_shipper_south_12,ฉลองชัยขนส่ง,south,ถ.วงแหวนรอบนอก,,,กรุงเทพฯ,base.th,02-885-8410-1,,,TRUE,073-522-123,นราธิวาส ตันหยงมัส สุไหงปาตี สุไหงโกลก,
partner_shipper_south_13,ปัตตานีปลาป่น ,south,ถ.วงแหวนรอบนอก บางขุนเทียน,,,กรุงเทพฯ,base.th,"01-2078111,01-5407444,02-8953024-5",,,TRUE,"073-311044,310234",กรุงเทพฯ ปัตตานี สงขลา ยะลา,
partner_shipper_south_14,อุปกรณ์การเกษตรพัทลุง (อุปกรณ์ขนส่ง),south,พุทธมณฑลสาย 3,,,กรุงเทพฯ,base.th,"02-4413584-5, 01-5988239",,,TRUE,"พัทลุง 074-613239,612062",กรุงเทพ พัทลุง,
partner_shipper_south_15,พิชิตขนส่งพัทลุง (ภาคใต้),south,ซ.สุขาภิบาล 2 ทวีวัฒนา,,,กรุงเทพฯ,base.th,"02-885-8367,01-4410355",,,TRUE,,พัทลุง,
partner_shipper_south_16,ภูเก็ตเสรีขนส่ง,south,พุทธมณฑลสาย 3,,,กรุงเทพฯ,base.th,"02-888-0736,02-888-1450",,,TRUE,"076-234428,234375,01-9580855,01-5973668",กรุงเทพฯ ภูเก็ต,
partner_shipper_south_17,เมืองทองบริการภูเก็ต,south,ถ.บางแวก บางแค,,,กรุงเทพฯ,base.th,"02-410-3421-2, 02-865-3244, 01-476-7957",,,TRUE,"0-7621-3596,0-7622-1254, 0-7624-0500-2",กรุงเทพฯ ภูเก็ต ป่าตอง กระทู้ กะตะ กะรน พังงา ท้ายเหมือง โคกกลอย,
partner_shipper_south_18,ด่วน 1999 ขนส่ง,south,พุทธมณฑลสาย 2 ภาษีเจริญ,,,กรุงเทพฯ,base.th,02-8041116-7,,,TRUE,"076-216791,216287",กรุงเทพฯ ภูเก็ต,
partner_shipper_south_19,ภูเก็ตวุฒิเจริญขนส่ง ,south,ถ.วงแหวน ตลิ่งชัน,,,กรุงเทพฯ,base.th,"02-4413245,02-4413857",,,TRUE,"076-239119,239279",กรุงเทพฯ - ท้ายเหมือง- โคกลอย – พังงา ภูเก็ต,
partner_shipper_south_20,โชคชัยอมรกิจ ,south,ถ.วงแหวน ตลิ่งชัน,,,กรุงเทพฯ,base.th,02-8858031-2,,,TRUE,"076-214889,222017",กรุงเทพฯ ภูเก็ต ,
partner_shipper_south_21,สามัคคีขนส่งสายใต้,south,ซ.เอกมัย 95,,,กรุงเทพฯ,base.th,"02-4158506,4158508, 09-7883393",,,TRUE,"หาดใหญ่ 074-429049, ยะลา 073-221135,223545, 073-223466,01-9906620",สงขลา หาดใหญ่ ยะลา ปัตตานี ยะลา เบตง รับเหมาคันทั่วภาคใต้,
partner_shipper_south_22,เอเชีย-หาดใหญ่ ขนส่ง สายใต้,south,ถ.เอกชัย บางบอน,,,กรุงเทพฯ,base.th,"02-894-2649-50, 02-894-3531",,,TRUE,"หาดใหญ่ 074-559073,72",หาดใหญ่ สงขลา สตูล ยะลา ปัตตานี สุไหงโกลก นครศรีธรรมราช ตรัง สุราษฎร์ ทุ่งสง,
partner_shipper_south_23,กรุงเทพปักษ์ใต้ขนส่ง,south,ถ.บางแวก บางแค,,,กรุงเทพฯ,base.th,"02-410-4089,02-4103359, 01-6143458",,,TRUE,"หาดใหญ่ 0-7442-7437,0-4194-7592",สุราษฎร์ธานี หาดใหญ่ สงขลา,
partner_shipper_south_24,สงขลาปิยวัฒน์ขนส่ง,south,ถ.เอกชัย บางบอน,,,กรุงเทพฯ,base.th,"02-8925113,06-6921992, 01-9698100",,,TRUE,"หาดใหญ่ 074-427787-8, 06-5981861",กรุงเทพ สงขลา,
partner_shipper_south_25,จิรพจน์ทรานสปอร์ต,south,ถ.เอกชัย บางบอน,,,กรุงเทพฯ,base.th,02-415-9478-9,,,TRUE,"สนง.หาดใหญ่ 073-221663, 01-6086918",สงขลา หาดใหญ่ ยะลา ปัตตานี,
partner_shipper_south_26,เกียรติเจริยชัยขนส่ง (ภาคใต้),south,ถ.เอกชัย บางบอน,,,กรุงเทพฯ,base.th,02-894-3328-9,,,TRUE,074-743141-2,กรุงเทพฯ สตูล ละงู ท่าแพ ฉลุง ทุ่งหว้า,
partner_shipper_south_27,ปิติพร ขนส่ง,south,แขวงศาลาธรรมสพน์,,,กรุงเทพฯ,base.th,02-8874634-5,,,TRUE,"สุราษฎร์ 077-289072, บ้านส้อง 077-363321",สุราษฎร์ พุนพิน บ้านาเดิม นาสาร บ้านส้อง เวียงสระ พระแพง,
partner_shipper_south_28,สหมิตรการขนส่ง,south,ภาษีเจริญ บางแวก,,,กรุงเทพฯ,base.th,02-448-2942-3,,,TRUE,"0-7727-2550,0-7728-8065",สุราษฎร์ธานี,
partner_shipper_south_29,มงคลชัยรุ่งเรืง,south,"799,801(ซอยธ.นาคารกสิกรไทย) ถ.บางขุนเทียน",,,กรุงเทพฯ,base.th,080-708278,,,TRUE,"หาดใหญ่081-956-76992,089545987",กรุงเทพฯ-หาดใหญ่,
partner_shipper_south_30,โชคประเสริฐ,south,136/8 ข้างปี้มเอสโซ่ ถ.กาญจนาพิเษก บงระมาด,,,กรุงเทพฯ,base.th,"02-8858854,028859314",,,TRUE,"ชุมพร 077-503903,077-581571,077-544811",กรุงเทพน ท่าแซะ ชุมพร ทวี เขาปีบ ทุ่งตะโก หังสวน ละแม ท่าชนะ ไชยา,
partner_shipper_south_31,ทรัพย์สมบูรณ์ถาวร,south,527 ถนนบางแวก แขวงบางไผ่,,,กรุงเทพฯ,base.th,"02-44828745,02-8872705",,,TRUE,"สนง.สายใต้ 02-448-2874-5,02-887-2705 สนง.สายอิสาน 02-8874337-8",เพชรบุรี หังหิน ปราณบุรี ประจวบ กรุงเทพฯ,
partner_shipper_south_32,กระบีอุดมทรัพย์ขนส่ง,south,124 ม.1 ต.กระบี่ อ.เมือง ,,,กรุงเทพฯ,base.th,"075-600716-7,086-3209831",,,TRUE,"สนง.กรุงเทพฯ 02-86-964745,0828116983",กรุงเทพฯ-กระบี่,
partner_shipper_south_33,ภูเก็ตเลิศดี,south,70/11 หมู่  ตรงข้ามสนามกีฬาฯ ซอย 9 ถ.ทวีวัฒนา,,,กรุงเทพฯ,base.th,"08-63368167,0897437940",,,TRUE,"สนง.07-6373408,0894694917,08-95915244",กรุงเทพฯ ภูเก็ต,
partner_shipper_south_34,เอส.ดี.เอ็น เอ็กซ์เพรส,south,212-214ถ.จารุเมือง แขลงรองเมือง เขตปทุมวัน,,,กรุงเทพฯ,base.th,"0-2241-4341,0-2216-5846,0-2219-3180,08-1408-3196,08-1449-0862",,,TRUE,,กรุงเทพฯ ประจวบฯ ชุมพร ระนอง สุราษฎร์ สมุย  นครศรีฯ ทุ่งสง สิชล หาดใหญ่ สงขลา ภูเก็ต กระบี่ พังงา ตรัง ปัตตานี พัทลุง สตูล ยะลา,
partner_shipper_south_35,เอส.พี.สุภาภัณฑ์,south,19/19ถ.จรัสเมือง (ติดรั้วรถไฟ) แขวงรองเมือง,,,กรุงเทพฯ,base.th,"02-215-3954-5,02-216-5845",,,TRUE,,กรุงเทพฯ ประจวบฯ ชุมพร ระนอง สุราษฎร์ สมุย  นครศรีฯ ทุ่งสง สิชล หาดใหญ่ สงขลา ภูเก็ต กระบี่ พังงา ตรัง ปัตตานี พัทลุง สตูล ยะลา,
partner_shipper_south_36,หจก.พัฒนาเอกซ์เพลส,south,1700ถ.กรุงเกษม (ตรงข้ามหัวลำโพง) เขตป้อมปราบ,,,กรุงเทพฯ,base.th,"02-2232251,081-0892988",,,TRUE,"สนง.ทุ่งสง075-332215,085-8847466 สนง.หาดใหญ่ 087-232281,074-225132,081-4792999",กรุงเทพฯ ทุ่งสง ตัว พัทลุง หาดใหญ่ สงขลา สตูล ยะลา ปัตตานี นราธิวาส โกลก,
partner_shipper_south_37,ก.เก๋ อินเตอร์กรุ๊ป,south,70/20 หมุ่1 ตรงข้ามสนามกีฬานฯซ.29 ถ.ทวีวัฒนา,,,กรุงเทพฯ,base.th,"08-1569-3729,08-2808-0686",,,TRUE,สนง.หลังสวน 08-1719-2683,กรุงเทพฯ ชุมพร,
partner_shipper_south_38,ไชยาภาคใต้,south,115/534-535 หมู่ที่4 ซอยเอกชัย 95,แขวงบางบอน เขตบางบอน,,กรุงเทพฯ,base.th,"02-4511015,081-8299990",,,TRUE,"สนง.081-8947634,081-891233","กรุงเทพฯ อ.ท่าชนะ ,ท่าฉาง,กิ่งวิภาวดี,พุนทอง,เมืองสุราษฎร์(บ้านดอน)",
partner_shipper_south_39,สหมิตรขนส่งสุราษฎร์ธานี,south,148/97ถ.กายจนวิถี ต.บ้านกุ้ง อ.เมือง,,,กรุงเทพฯ,base.th,"077-272550,288065",,,TRUE,"กรุงเทพฯ02-4482942,4482948",กรุงเทพฯ-สุราษฎร์,
partner_shipper_south_40,เค.เจ.เอกซ์เพรส,south,416หมู่4 ต.เกาะเต่า อ.ป่าพะยอม ,,,กรุงเทพฯ,base.th,"081-3709024,081-96877818",,,TRUE,สาขากรุงเทพฯ 02-4483101,กรุงเทพฯ-พัทลุง,
partner_shipper_south_41,เค.เจ.กรุ๊ป,south,45/38 ม.6 ถ.พุทธมณฑล 4 ,ต.กระทุ้มล้ม อ.สามพราน,,กรุงเทพฯ,base.th,"084-933-5559,089-811-3055",,,TRUE,,นครปฐม,
partner_shipper_south_42,ภูเก็ตแหลมทอง,south,33ถ.แม่หลวง อ.เมือง ,,,กรุงเทพฯ,base.th,"076-2157-760,076-211341,087-213524",,,TRUE,"สนง.กรุงเทพฯ02-4481996,02-8871562-3,02-8871564",กรุงเทพฯ -ภุเก็ต,
partner_shipper_south_43,พี พีสุราษฎร์ขนส่ง,south,34/9 หมู่ 10 ถ.พุทธมณฑล สาย 2 แขวงบางไผ่,แขวงบางไผ่,,กรุงเทพฯ,base.th,02-454-2565,,,TRUE,,กรุงเทพฯ,
partner_shipper_south_44,กรุงศรี ประเสริฐขนส่ง,south,30/60หมู่ 6 ถ.พุทธมณฑลสาย4 ,ต.กระทุ้มล้ม อ.สามพราน,,กรุงเทพฯ,base.th,"02-4292650-1,089-7772374,089-4479264",,,TRUE,,นครปฐม,
partner_shipper_south_45,อ.เกียรติเจริญชัย,south,619ม.3 ต.กำแพง อ.ละงู,,,กรุงเทพฯ,base.th,074-734141-2,,,TRUE,สนง.กรุงเทพฯ 02-8943328-9,กรุงเทพฯ-สตูล,
partner_shipper_south_46,ต้นอ้อยขนส่ง,south,44/123 หมู่ 5 ถ.กาญจณาภิเษก แขวงบางบอน,,,กรุงเทพฯ,base.th,"02-895-3593,087-396-1388",,,TRUE,083-184-9577,กรุงเทพฯ สงขลา-หาดใหญ่ พัทลุง สตูล ปัตตานี ยะลา,
partner_shipper_south_47,ทับทิมเอ๊กซ์เพลส,south,,,,กรุงเทพฯ,base.th,"081-5965014,087-7507919,0859149281",,,TRUE,,บ้านแพ้ว กระทุ่มแบน เพขรบุรี ชะอำ ท่ายาง หัวหิน ปราณบุรี สมุทรสาคร สมุทรสงคราม ปากท่อ ดำเนิน,
partner_shipper_south_48,ภูเก็ตวุฒิเจริญ,south,58/39-40 หมุ่6 ถ.เทพกษัตรี ต.รัษฎา อ.เมือง,,,กรุงเทพฯ,base.th,"087-239119,23929",,,TRUE,"สนง.กรุงเทพฯ02-4413245,02-4413857",กรุงเทพฯ-ท้ายเมือง-โคกกลอย-พังงา-ภูเก็ต,
partner_shipper_south_49,ธนาการขนส่ง,south,624ซ.6ถ.พุทธมณฑลาสาย3 แขวงศาลาธรรมสพน์,,,กรุงเทพฯ,base.th,082-293-3195,,,TRUE,เพชรบุรี082-293-3167,กรุงเทพฯ-เพชรบุรี,
partner_shipper_south_50,นิวเอกชัย,south,708ถ.พุทธมณฑลสาย3 ซ.ขุมทรัพย์,,,กรุงเทพฯ,base.th,0-2888-1918-19,,,TRUE,"สนง.ภูเก็ต076-212300,352062-3",กรุงเทพฯ ภูเก็ต  ตะกัวป่า ท้ายเหมือง โครกกลอย พังงา กระบี่,
partner_shipper_south_51,สมชาย สปีดทรานสปอร์ต,south,45/5ถ.บนมราชชนนี เขตตลิ่งชัน,,,กรุงเทพฯ,base.th,"02-4489091,02-4489050-1",,,TRUE,,กรุงเทพฯ สุราษฎร์ ชุมพร นครศรีฯ ทุ่งสง  หาดใหญ่ สงขลา ภูเก็ต กระบี่ พังงา ตรัง ปัตตานี พัทลุง สตูล ยะลา อ.บ้านตาขุ่น,
partner_shipper_south_52,อาทิตย์ขนส่ง,south,65/503-505ซ.เอกชัย แขวงบางบอน เขตบงบอน,,,กรุงเทพฯ,base.th,02-894-443-4,,,TRUE,,กรุงเทพฯ,
partner_shipper_south_53,ศรีพูนทรัพย์,south,18/3 กาญจนวนิช ถ.กาญจณาภิเษก อ.หาดใหญ่,,,กรุงเทพฯ,base.th,087-633-8877,,,TRUE,สนง.หังลำโพง 087-633-88-66 สนง.ปัตตานี089-456-8800,สงขลา หาดใหญ่ ปัตตานี ยะลา นาราธิวาส สุไหงโกลก,
partner_shipper_south_54,ชุปเปอร์คิงส์,south,5/27-29ถ.เจริญเมือง แขวงรองเมือง เขตปทุมวัน,,,กรุงเทพฯ,base.th,"058-475238,084-7297960",,,TRUE,สนง.สุราษฎร์ฯ 081-7873685,กรุงเทพฯ สุราษฎร์เกาะสมุย นครศรีฯ ทุ่งสง,
partner_shipper_south_55,สุราษฎร์ ดอ.พี.เอ็กซ์เพรส,south,ใต้สะพานทางด่วนพระราม6 ตรงข้ามวัดวงแข ,ถ.จารุเมือง เขตปทุมวัน,,กรุงเทพฯ,base.th,"0-2214277-8,087-2276-4589,08-2276-499",,,TRUE,"สนง.สุราษฎร์ฯ077-282969,077-283299",กรุงเทพฯ สุราษฎร์ เกาะสมุย-เกาะพะงัน,
partner_shipper_south_56,เมธัสฐนนน ทรานสปอร์ต,south,55หมุ่9 ถ.พุทธมณฑลสาย2 แขวงทวีวัฒนา,,,กรุงเทพฯ,base.th,"02-4481532,081-9210917",,,TRUE,"สุราษฎร์077-264857,เวียงสระ085-619366,เกาะสมุย085-9008057 นครศรีฯ 075-314127,086-6896606",กรุงเทพ สุราษฎร์ เวียงสระ เกาะสมุย นครศรี,
partner_shipper_south_57,ทุ่งสงนครทรานปอร์ต,south,537ถ.บางแวก แขวงบางไผ่ เขตบางแค,,,กรุงเทพฯ,base.th,0-2410-3118-9,,,TRUE,,กรุงเทพฯ นครศรีธรรมราช ทุงสง,
partner_shipper_south_58,ใบตราส่ง กรุงเทพฯ-ภาคใต้,south,45/5 ถ.บรมราชชนนี เขตตลิ่งชัน ,,,กรุงเทพฯ,base.th,"02-4489091,02-4489050",,,TRUE,,กรุงเทพฯ สุราษฎร์ ชุมพร นครศรีฯ ทุ่งสง  หาดใหญ่ สงขลา ภูเก็ต กระบี่ พังงา ตรัง ปัตตานี พัทลุง ยะลา นาสาร โคกกลอย อ.บ้านตาขุน,
partner_shipper_south_59,ศรีรุ่งเรืองชัย เอ้กซเพรส,south,3/24 หมู่9 ซ.สนามกีฬาฯ ,ถ.มณฑลสาย2 แขวง/เขตทวีวัฒนา ,,กรุงเทพฯ,base.th,02-887-0916-7,,,TRUE,,กรุงเทพฯ,
partner_shipper_south_60,ข้ามสมุทรขนส่ง,south,7 หมุ่9 ถ.พุทธมณฑลสาย2 ทวีวัฒนา,,,กรุงเทพฯ,base.th,"0-2887-0368-9,08-6554-0368",,,TRUE,"ระนอง 0-7782-3649, 0-7781-3184",กรุงเทพฯ ระนอง กระบุรี กะเปอร์ สุขสำราญ คุระบุรี,
partner_shipper_south_61,111ขนส่ง,south,,,,กรุงเทพฯ,base.th,"074-333777,086-9650111,02-4296184,083-1832111",,,TRUE,,สงขลา ,
partner_shipper_south_62,แพปลาสมบัติวัฒนาขนส่ง,south,135/27-28 บ้านเจริญนคร ถ.นาเกลือ ,ต.อาเนาะรู อ.เมือง จ.ปัตตานี,,กรุงเทพฯ,base.th,"073-332392-3,334614-16",,,TRUE,"สาขากรุงเทพฯ 02-8859018-19,081-6087204 สาขาหาดใหญ่ 074-427202-03 สาขาสตูล 074-721333",กรุงเทพฯ-หาดใหญ่ -สงขลา-สตูล-ปัตตานี-ยะลา-นราธิวาส,
partner_shipper_south_63,มหาลาภพูนทวี,south,75ถ.อนุสาวรีย์อาจารย์ทอง ,ต.หาดใหญ่ อ.ห่ดใหญ่ จ.สงขลา,,กรุงเทพฯ,base.th,"074-366842,366843,366844",,,TRUE,"สาขากรุงเทพฯ 02-8880786,8880778",สงขลา-หาดใหญ่-สะเดา-ปาดังเบซาร์-กทม.ฯ,
partner_shipper_south_64,ทรัพย์ไพศาลทัวร์,south,,,,กรุงเทพฯ,base.th,,,,TRUE,กรุงเทพฯ 02-4223100,กรุงเทพฯ ทุ่งสง ตรัง พัทลุง สตูล สุราษฎร์,
partner_shipper_south_65,หาดใหญ่ทัวร์ขนส่ง,south,12ถ.สายเอเชีย (หัวสะพานลอยคลองหวะด้านขวา ทางไปนาหม่อม),,,กรุงเทพฯ,base.th,"074-217378,074-217379,080-7163938",,,TRUE,"สนง.หังลำโพง 02-2216850,084-9962648 สนง.พุทธมณฑลสาย3 02-8890981,089-7362806",หาดใหญ่-สงขลา- สะเดา -คลองแงะ- ปาตังฯ- นาทวี-จะนะ- ยะลา -ปัตตานี -นาราธิราช-โกลก,
partner_shipper_south_66,โชคสถาพรขนส่งพังงา,south,7/6ถ.พุทธมลฑลสายแขวงทวีพัฒนา ,,,กรุงเทพฯ,base.th,02-4481998,,,TRUE,"พังงา 076-442414,08-97240429",กรุงเทพฯ-พังงา-โคกกลอย-ท้ายเหมือง-ตะกั่วทุ่ง- ทับปุด-อ่าวลึก-ปลายพระยา,
partner_shipper_south_67,กระบี่นครการขนส่ง,south,136-136/1 เชิงสะพานต่างระดับสินพลี ถ.กาญจณาภิเษก ,บางระมาด,,กรุงเทพฯ,base.th,"0-2885-846,02-8858747,028858748",,,TRUE,สาขาสุราษฎร์08-9203-5895,สุราษฎร์ฯ นครศรีฯ กระบี่ ตรัง ทุ่งสง,
partner_shipper_south_68,สมุยขนส่ง,south,136/3 (ข้างปลั๊มเอสโซ่)ถ.กาญจณาภิเษก บางระมาด ตลิ่งชัน,,,กรุงเทพฯ,base.th,0-7742-4206,,,TRUE,"เกาะสมุย0-7742-4206,08-1537-5417",เกาะสมุย- เกาะพงัน,
partner_shipper_south_69,กนกสยามนครการขนส่ง,south,501ถ.บางแวก แขวงบางไผ่ เขตบางแค ,,,กรุงเทพฯ,base.th,"0-2887-1686,0-2887-1767,02887-1959,0-2887-1455",,,TRUE,กระบี่0-7561-1677 นครศรีฯ0-7531-4044 ตรัง 0-7521-1788,กระบี่ นครศรีฯ ตรัง ทุ่งสง สุราษฎร์ฯ,
partner_shipper_south_70,ป.กิติขนส่ง,south,10/14ม.1 ต.พะวง อ.เมือง ,,,กรุงเทพฯ,base.th,"081-5144529,089-7350615,086-9584851",,,TRUE,"กรุงทพฯ02-8894744,089-466152",กรุงเทพฯ -สงขลา,
partner_shipper_south_71,ภัทรนันท์ขนส่ง,south,11/49ถ.เอกชัย ซ.94 แขวนบางบอน,,,กรุงเทพฯ,base.th,0-28990-8897,,,TRUE,"ยะลา073-214-413,081-277-3444",กรุงเทพฯ ยะลา,
partner_shipper_south_72,รวมมิตรนครขนส่ง,south,490-492ถ.อุทยาน พุทธมณฑล สาย3 หมู่บ้านขุมทรัพย์,,,กรุงเทพฯ,base.th,02-8880764-02-8882076,,,TRUE,นครศรีฯ075-3563888,กรุงเทพฯ นครศรีธรรมราช,
partner_shipper_south_73,รัชพลขนส่ง,south,602-4 ถ.พุทธมณฑลสาย3 หมุ่บ้านขุมทรัพย์นคร ,เขตทวีวัมนา,,กรุงเทพฯ,base.th,"02-441-3820,02-441-3821",,,TRUE,"สนง.ตะกั่วป่า 076-421136,431616",,
partner_shipper_south_74,ภาคใต้เทเล่อร์ขนส่ง,south,31/23ถ.สายบางแวก แขวงบางไผ่ เขตภาษีเจริญ,,,กรุงเทพฯ,base.th,"02-4103138,081-3140533,081-4389755",,,TRUE,"ตรัง 075-210401,081-3963444,081-3969457",กรุงเทพฯ ตรัง,
partner_shipper_south_75,ปิยวัฒน์ทรานสปอร์ต,south,497/19ถ.นครนอก ต.บ่อยาง อ.เมือง,,,กรุงเทพฯ,base.th,"02-8925113,086-6921992ม085-8922268",,,TRUE,"สนง.หาดใหญ่ 074-427787-8,085-8922256",กรุงเทพฯ สงขลา หาดใหญ่,
partner_shipper_south_76,ภูเก็ตมั่นคง,south,82/60หมู่19 ถ.พุทธมณฑลสาย 2 ศาลาธรรมสพน์ ทวัวัฒนา,,,กรุงเทพฯ,base.th,"0-2448-1315,0-2448-1005,08-6312-7164,08-6312-7165",,,TRUE,"ภูเก็ต 0-7623-5013-4,08-9729-3230,08-6310-4267,08-6310-4481",กรุงเทพฯ ภูเก็ต,
partner_shipper_south_77,ปรีดดาภาคใต้,south,31/10ถ.บางแวก (ติดกับถนนวงแหวนรอบนอก) แขวงบางไผ่ เขตภาษีเจริญ,,,กรุงเทพฯ,base.th,"0-2410-3420,0-2410-3160",,,TRUE,"สนง.ชุมพร 0-7764-3310,08-1970-5149 สนง.หลังสวน 0-7754-1946,09669-6376",กรุงเทพฯ ชุมพร,
partner_shipper_south_78,ตั้งอี่ฮั้ว ขนส่ง,south,81/78 หมู่ 19 แขวง ศาลาธรรมสพน์  เขตทวัวัมนา,,,กรุงเทพฯ,base.th,0-2887-4580-1,,,TRUE,,,   
partner_shipper_south_1,นครกรุงเทพสหการขนส่ง,south,ทวีวัฒนา,,,กรุงเทพฯ,base.th,"
02-887-0910-1, 02-448-1113, 02-887-2085",,,TRUE,,ประจวบคีรีขันธ์,
partner_shipper_south_2,ทรัพย์สมบูรณ์ทรัพย์,south,ถ.บางแวก,,,กรุงเทพฯ,base.th,"02-8872705, 4482874-5",,,TRUE,"เพชรบุรี 032-425853,427854
หัวหิน 01-4932270,09-7388494
ปราณบุรี 032-621448,01-9810238
ประจวบฯ032-603651,01-7638481",เพชรบุรี,
partner_shipper_south_3,ประพันธ์เพชรบุรี,south,สุขาภิบาล 2 ทวีวัฒนา,,,กรุงเทพฯ,base.th,,,,TRUE,032-425450,เพชรบุรี,
partner_shipper_south_4,กระบี่นครการขนส่ง,south,ถ.กาญจนาภิเษก  ตลิ่งชัน,,,กรุงเทพฯ,base.th,"02-8858746, 02-8858747, 02-8858748",,,TRUE,0-7563-2227,"กรุงเทพฯ สุราษฎร์ฯ นครศรี กระบี่ ตรัง
ทุ่งสง",
partner_shipper_south_5,หจก.ปรีดาภาคใต้ ขนส่ง,south,ถนนบางแวก ภาษีเจริญ,,,กรุงเทพฯ,base.th,"02-410-3420, 02-410-3160, 06-375-4853, 01-445-6094, 01-875-5577",,,TRUE,"0-7750-3351,0-7757-1358
0-6069-8810 หลังสวน 0-7754-1946
0-9669-6376",กรุงเทพฯ ชุมพร,
partner_shipper_south_6,สหขนส่งสายใต้ ,south,ถ.กาญจนาภิเษก ทวีวัฒนา,,,กรุงเทพฯ,base.th,02-885-9041-3,,,TRUE,"0-7750-1425,0-7751-1273",ชุมพร,
partner_shipper_south_7,โกล้วนขนส่ง,south,ถ.บางแวก บางแค,,,กรุงเทพฯ,base.th,"02-448-2898, 02-448-2937-8",,,TRUE,0-7521-2940,ตรัง กันตัง ห้วยยอด ย่านตาขาว ปะเหลี่ยน,
partner_shipper_south_8,อาร์เอทีขนส่ง,south,,,,กรุงเทพฯ,base.th,"02-889-4800, 01-597-5973, 01-535-7110",,,TRUE,0-7532-5241,กทม.-นครศรีธรรมราช,
partner_shipper_south_9,ทุ่งสงนครขนส่ง,south,ถ.บางแวก ภาษีเจริญ,,,กรุงเทพฯ,base.th,"02-4103118,02-4103119",,,TRUE,,นครศรีและทุ่งสง,
partner_shipper_south_10,สี่สหายขนส่ง,south,แขวงแสมดำ บางขุนเทียน,,,กรุงเทพฯ,base.th,02-451-6712-16,,,TRUE,,นครศรีธรรมราช,
partner_shipper_south_11,พรทรัพย์สว่างขนส่ง (เดิมทรัพย์ดวงพร),south,หมู่บ้านขุมทรัพย์นคร สาย 3,,,กรุงเทพฯ,base.th,"087-8947440, 081-5372582",,,TRUE,"081-5372582, 081-5371345","นครศรีธรรมราช จันดี ฉวาง ทานพอ ถ้ำพรรณรา บ้านส้อง
พิปูน นาบอน ทุ่งสง ทุ่งใหญ่ กะปาง",
partner_shipper_south_12,ฉลองชัยขนส่ง,south,ถ.วงแหวนรอบนอก,,,กรุงเทพฯ,base.th,02-885-8410-1,,,TRUE,073-522-123,นราธิวาส ตันหยงมัส สุไหงปาตี สุไหงโกลก,
partner_shipper_south_13,ปัตตานีปลาป่น ,south,ถ.วงแหวนรอบนอก บางขุนเทียน,,,กรุงเทพฯ,base.th,"01-2078111,01-5407444,02-8953024-5",,,TRUE,"073-311044,310234",กรุงเทพฯ ปัตตานี สงขลา ยะลา,
partner_shipper_south_14,อุปกรณ์การเกษตรพัทลุง (อุปกรณ์ขนส่ง),south,พุทธมณฑลสาย 3,,,กรุงเทพฯ,base.th,"02-4413584-5, 01-5988239",,,TRUE,"พัทลุง 074-613239,612062",กรุงเทพ พัทลุง,
partner_shipper_south_15,พิชิตขนส่งพัทลุง (ภาคใต้),south,ซ.สุขาภิบาล 2 ทวีวัฒนา,,,กรุงเทพฯ,base.th,"02-885-8367,01-4410355",,,TRUE,,พัทลุง,
partner_shipper_south_16,ภูเก็ตเสรีขนส่ง,south,พุทธมณฑลสาย 3,,,กรุงเทพฯ,base.th,"02-888-0736,02-888-1450",,,TRUE,"076-234428,234375,01-9580855,01-5973668",กรุงเทพฯ ภูเก็ต,
partner_shipper_south_17,เมืองทองบริการภูเก็ต,south,ถ.บางแวก บางแค,,,กรุงเทพฯ,base.th,"02-410-3421-2, 02-865-3244, 01-476-7957",,,TRUE,"0-7621-3596,0-7622-1254, 0-7624-0500-2",กรุงเทพฯ ภูเก็ต ป่าตอง กระทู้ กะตะ กะรน พังงา ท้ายเหมือง โคกกลอย,
partner_shipper_south_18,ด่วน 1999 ขนส่ง,south,พุทธมณฑลสาย 2 ภาษีเจริญ,,,กรุงเทพฯ,base.th,02-8041116-7,,,TRUE,"076-216791,216287",กรุงเทพฯ ภูเก็ต,
partner_shipper_south_19,ภูเก็ตวุฒิเจริญขนส่ง ,south,ถ.วงแหวน ตลิ่งชัน,,,กรุงเทพฯ,base.th,"02-4413245,02-4413857",,,TRUE,"076-239119,239279",กรุงเทพฯ - ท้ายเหมือง- โคกลอย – พังงา ภูเก็ต,
partner_shipper_south_20,โชคชัยอมรกิจ ,south,ถ.วงแหวน ตลิ่งชัน,,,กรุงเทพฯ,base.th,02-8858031-2,,,TRUE,"076-214889,222017",กรุงเทพฯ ภูเก็ต ,
partner_shipper_south_21,สามัคคีขนส่งสายใต้,south,ซ.เอกมัย 95,,,กรุงเทพฯ,base.th,"02-4158506,4158508, 09-7883393",,,TRUE,"หาดใหญ่ 074-429049, ยะลา 073-221135,223545, 073-223466,01-9906620",สงขลา หาดใหญ่ ยะลา ปัตตานี ยะลา เบตง รับเหมาคันทั่วภาคใต้,
partner_shipper_south_22,เอเชีย-หาดใหญ่ ขนส่ง สายใต้,south,ถ.เอกชัย บางบอน,,,กรุงเทพฯ,base.th,"02-894-2649-50, 02-894-3531",,,TRUE,"หาดใหญ่ 074-559073,72",หาดใหญ่ สงขลา สตูล ยะลา ปัตตานี สุไหงโกลก นครศรีธรรมราช ตรัง สุราษฎร์ ทุ่งสง,
partner_shipper_south_23,กรุงเทพปักษ์ใต้ขนส่ง,south,ถ.บางแวก บางแค,,,กรุงเทพฯ,base.th,"02-410-4089,02-4103359, 01-6143458",,,TRUE,"หาดใหญ่ 0-7442-7437,0-4194-7592",สุราษฎร์ธานี หาดใหญ่ สงขลา,
partner_shipper_south_24,สงขลาปิยวัฒน์ขนส่ง,south,ถ.เอกชัย บางบอน,,,กรุงเทพฯ,base.th,"02-8925113,06-6921992, 01-9698100",,,TRUE,"หาดใหญ่ 074-427787-8, 06-5981861",กรุงเทพ สงขลา,
partner_shipper_south_25,จิรพจน์ทรานสปอร์ต,south,ถ.เอกชัย บางบอน,,,กรุงเทพฯ,base.th,02-415-9478-9,,,TRUE,"สนง.หาดใหญ่ 073-221663, 01-6086918",สงขลา หาดใหญ่ ยะลา ปัตตานี,
partner_shipper_south_26,เกียรติเจริยชัยขนส่ง (ภาคใต้),south,ถ.เอกชัย บางบอน,,,กรุงเทพฯ,base.th,02-894-3328-9,,,TRUE,074-743141-2,กรุงเทพฯ สตูล ละงู ท่าแพ ฉลุง ทุ่งหว้า,
partner_shipper_south_27,ปิติพร ขนส่ง,south,แขวงศาลาธรรมสพน์,,,กรุงเทพฯ,base.th,02-8874634-5,,,TRUE,"สุราษฎร์ 077-289072, บ้านส้อง 077-363321",สุราษฎร์ พุนพิน บ้านาเดิม นาสาร บ้านส้อง เวียงสระ พระแพง,
partner_shipper_south_28,สหมิตรการขนส่ง,south,ภาษีเจริญ บางแวก,,,กรุงเทพฯ,base.th,02-448-2942-3,,,TRUE,"0-7727-2550,0-7728-8065",สุราษฎร์ธานี,
partner_shipper_south_29,มงคลชัยรุ่งเรืง,south,"799,801(ซอยธ.นาคารกสิกรไทย) ถ.บางขุนเทียน",,,กรุงเทพฯ,base.th,080-708278,,,TRUE,"หาดใหญ่081-956-76992,089545987",กรุงเทพฯ-หาดใหญ่,
partner_shipper_south_30,โชคประเสริฐ,south,136/8 ข้างปี้มเอสโซ่ ถ.กาญจนาพิเษก บงระมาด,,,กรุงเทพฯ,base.th,"02-8858854,028859314",,,TRUE,"ชุมพร 077-503903,077-581571,077-544811",กรุงเทพน ท่าแซะ ชุมพร ทวี เขาปีบ ทุ่งตะโก หังสวน ละแม ท่าชนะ ไชยา,
partner_shipper_south_31,ทรัพย์สมบูรณ์ถาวร,south,527 ถนนบางแวก แขวงบางไผ่,,,กรุงเทพฯ,base.th,"02-44828745,02-8872705",,,TRUE,"สนง.สายใต้ 02-448-2874-5,02-887-2705 สนง.สายอิสาน 02-8874337-8",เพชรบุรี หังหิน ปราณบุรี ประจวบ กรุงเทพฯ,
partner_shipper_south_32,กระบีอุดมทรัพย์ขนส่ง,south,124 ม.1 ต.กระบี่ อ.เมือง ,,,กรุงเทพฯ,base.th,"075-600716-7,086-3209831",,,TRUE,"สนง.กรุงเทพฯ 02-86-964745,0828116983",กรุงเทพฯ-กระบี่,
partner_shipper_south_33,ภูเก็ตเลิศดี,south,70/11 หมู่  ตรงข้ามสนามกีฬาฯ ซอย 9 ถ.ทวีวัฒนา,,,กรุงเทพฯ,base.th,"08-63368167,0897437940",,,TRUE,"สนง.07-6373408,0894694917,08-95915244",กรุงเทพฯ ภูเก็ต,
partner_shipper_south_34,เอส.ดี.เอ็น เอ็กซ์เพรส,south,212-214ถ.จารุเมือง แขลงรองเมือง เขตปทุมวัน,,,กรุงเทพฯ,base.th,"0-2241-4341,0-2216-5846,0-2219-3180,08-1408-3196,08-1449-0862",,,TRUE,,กรุงเทพฯ ประจวบฯ ชุมพร ระนอง สุราษฎร์ สมุย  นครศรีฯ ทุ่งสง สิชล หาดใหญ่ สงขลา ภูเก็ต กระบี่ พังงา ตรัง ปัตตานี พัทลุง สตูล ยะลา,
partner_shipper_south_35,เอส.พี.สุภาภัณฑ์,south,19/19ถ.จรัสเมือง (ติดรั้วรถไฟ) แขวงรองเมือง,,,กรุงเทพฯ,base.th,"02-215-3954-5,02-216-5845",,,TRUE,,กรุงเทพฯ ประจวบฯ ชุมพร ระนอง สุราษฎร์ สมุย  นครศรีฯ ทุ่งสง สิชล หาดใหญ่ สงขลา ภูเก็ต กระบี่ พังงา ตรัง ปัตตานี พัทลุง สตูล ยะลา,
partner_shipper_south_36,หจก.พัฒนาเอกซ์เพลส,south,1700ถ.กรุงเกษม (ตรงข้ามหัวลำโพง) เขตป้อมปราบ,,,กรุงเทพฯ,base.th,"02-2232251,081-0892988",,,TRUE,"สนง.ทุ่งสง075-332215,085-8847466 สนง.หาดใหญ่ 087-232281,074-225132,081-4792999",กรุงเทพฯ ทุ่งสง ตัว พัทลุง หาดใหญ่ สงขลา สตูล ยะลา ปัตตานี นราธิวาส โกลก,
partner_shipper_south_37,ก.เก๋ อินเตอร์กรุ๊ป,south,70/20 หมุ่1 ตรงข้ามสนามกีฬานฯซ.29 ถ.ทวีวัฒนา,,,กรุงเทพฯ,base.th,"08-1569-3729,08-2808-0686",,,TRUE,สนง.หลังสวน 08-1719-2683,กรุงเทพฯ ชุมพร,
partner_shipper_south_38,ไชยาภาคใต้,south,115/534-535 หมู่ที่4 ซอยเอกชัย 95,แขวงบางบอน เขตบางบอน,,กรุงเทพฯ,base.th,"02-4511015,081-8299990",,,TRUE,"สนง.081-8947634,081-891233","กรุงเทพฯ อ.ท่าชนะ ,ท่าฉาง,กิ่งวิภาวดี,พุนทอง,เมืองสุราษฎร์(บ้านดอน)",
partner_shipper_south_39,สหมิตรขนส่งสุราษฎร์ธานี,south,148/97ถ.กายจนวิถี ต.บ้านกุ้ง อ.เมือง,,,กรุงเทพฯ,base.th,"077-272550,288065",,,TRUE,"กรุงเทพฯ02-4482942,4482948",กรุงเทพฯ-สุราษฎร์,
partner_shipper_south_40,เค.เจ.เอกซ์เพรส,south,416หมู่4 ต.เกาะเต่า อ.ป่าพะยอม ,,,กรุงเทพฯ,base.th,"081-3709024,081-96877818",,,TRUE,สาขากรุงเทพฯ 02-4483101,กรุงเทพฯ-พัทลุง,
partner_shipper_south_41,เค.เจ.กรุ๊ป,south,45/38 ม.6 ถ.พุทธมณฑล 4 ,ต.กระทุ้มล้ม อ.สามพราน,,กรุงเทพฯ,base.th,"084-933-5559,089-811-3055",,,TRUE,,นครปฐม,
partner_shipper_south_42,ภูเก็ตแหลมทอง,south,33ถ.แม่หลวง อ.เมือง ,,,กรุงเทพฯ,base.th,"076-2157-760,076-211341,087-213524",,,TRUE,"สนง.กรุงเทพฯ02-4481996,02-8871562-3,02-8871564",กรุงเทพฯ -ภุเก็ต,
partner_shipper_south_43,พี พีสุราษฎร์ขนส่ง,south,34/9 หมู่ 10 ถ.พุทธมณฑล สาย 2 แขวงบางไผ่,แขวงบางไผ่,,กรุงเทพฯ,base.th,02-454-2565,,,TRUE,,กรุงเทพฯ,
partner_shipper_south_44,กรุงศรี ประเสริฐขนส่ง,south,30/60หมู่ 6 ถ.พุทธมณฑลสาย4 ,ต.กระทุ้มล้ม อ.สามพราน,,กรุงเทพฯ,base.th,"02-4292650-1,089-7772374,089-4479264",,,TRUE,,นครปฐม,
partner_shipper_south_45,อ.เกียรติเจริญชัย,south,619ม.3 ต.กำแพง อ.ละงู,,,กรุงเทพฯ,base.th,074-734141-2,,,TRUE,สนง.กรุงเทพฯ 02-8943328-9,กรุงเทพฯ-สตูล,
partner_shipper_south_46,ต้นอ้อยขนส่ง,south,44/123 หมู่ 5 ถ.กาญจณาภิเษก แขวงบางบอน,,,กรุงเทพฯ,base.th,"02-895-3593,087-396-1388",,,TRUE,083-184-9577,กรุงเทพฯ สงขลา-หาดใหญ่ พัทลุง สตูล ปัตตานี ยะลา,
partner_shipper_south_47,ทับทิมเอ๊กซ์เพลส,south,,,,กรุงเทพฯ,base.th,"081-5965014,087-7507919,0859149281",,,TRUE,,บ้านแพ้ว กระทุ่มแบน เพขรบุรี ชะอำ ท่ายาง หัวหิน ปราณบุรี สมุทรสาคร สมุทรสงคราม ปากท่อ ดำเนิน,
partner_shipper_south_48,ภูเก็ตวุฒิเจริญ,south,58/39-40 หมุ่6 ถ.เทพกษัตรี ต.รัษฎา อ.เมือง,,,กรุงเทพฯ,base.th,"087-239119,23929",,,TRUE,"สนง.กรุงเทพฯ02-4413245,02-4413857",กรุงเทพฯ-ท้ายเมือง-โคกกลอย-พังงา-ภูเก็ต,
partner_shipper_south_49,ธนาการขนส่ง,south,624ซ.6ถ.พุทธมณฑลาสาย3 แขวงศาลาธรรมสพน์,,,กรุงเทพฯ,base.th,082-293-3195,,,TRUE,เพชรบุรี082-293-3167,กรุงเทพฯ-เพชรบุรี,
partner_shipper_south_50,นิวเอกชัย,south,708ถ.พุทธมณฑลสาย3 ซ.ขุมทรัพย์,,,กรุงเทพฯ,base.th,0-2888-1918-19,,,TRUE,"สนง.ภูเก็ต076-212300,352062-3",กรุงเทพฯ ภูเก็ต  ตะกัวป่า ท้ายเหมือง โครกกลอย พังงา กระบี่,
partner_shipper_south_51,สมชาย สปีดทรานสปอร์ต,south,45/5ถ.บนมราชชนนี เขตตลิ่งชัน,,,กรุงเทพฯ,base.th,"02-4489091,02-4489050-1",,,TRUE,,กรุงเทพฯ สุราษฎร์ ชุมพร นครศรีฯ ทุ่งสง  หาดใหญ่ สงขลา ภูเก็ต กระบี่ พังงา ตรัง ปัตตานี พัทลุง สตูล ยะลา อ.บ้านตาขุ่น,
partner_shipper_south_52,อาทิตย์ขนส่ง,south,65/503-505ซ.เอกชัย แขวงบางบอน เขตบงบอน,,,กรุงเทพฯ,base.th,02-894-443-4,,,TRUE,,กรุงเทพฯ,
partner_shipper_south_53,ศรีพูนทรัพย์,south,18/3 กาญจนวนิช ถ.กาญจณาภิเษก อ.หาดใหญ่,,,กรุงเทพฯ,base.th,087-633-8877,,,TRUE,สนง.หังลำโพง 087-633-88-66 สนง.ปัตตานี089-456-8800,สงขลา หาดใหญ่ ปัตตานี ยะลา นาราธิวาส สุไหงโกลก,
partner_shipper_south_54,ชุปเปอร์คิงส์,south,5/27-29ถ.เจริญเมือง แขวงรองเมือง เขตปทุมวัน,,,กรุงเทพฯ,base.th,"058-475238,084-7297960",,,TRUE,สนง.สุราษฎร์ฯ 081-7873685,กรุงเทพฯ สุราษฎร์เกาะสมุย นครศรีฯ ทุ่งสง,
partner_shipper_south_55,สุราษฎร์ ดอ.พี.เอ็กซ์เพรส,south,ใต้สะพานทางด่วนพระราม6 ตรงข้ามวัดวงแข ,ถ.จารุเมือง เขตปทุมวัน,,กรุงเทพฯ,base.th,"0-2214277-8,087-2276-4589,08-2276-499",,,TRUE,"สนง.สุราษฎร์ฯ077-282969,077-283299",กรุงเทพฯ สุราษฎร์ เกาะสมุย-เกาะพะงัน,
partner_shipper_south_56,เมธัสฐนนน ทรานสปอร์ต,south,55หมุ่9 ถ.พุทธมณฑลสาย2 แขวงทวีวัฒนา,,,กรุงเทพฯ,base.th,"02-4481532,081-9210917",,,TRUE,"สุราษฎร์077-264857,เวียงสระ085-619366,เกาะสมุย085-9008057 นครศรีฯ 075-314127,086-6896606",กรุงเทพ สุราษฎร์ เวียงสระ เกาะสมุย นครศรี,
partner_shipper_south_57,ทุ่งสงนครทรานปอร์ต,south,537ถ.บางแวก แขวงบางไผ่ เขตบางแค,,,กรุงเทพฯ,base.th,0-2410-3118-9,,,TRUE,,กรุงเทพฯ นครศรีธรรมราช ทุงสง,
partner_shipper_south_58,ใบตราส่ง กรุงเทพฯ-ภาคใต้,south,45/5 ถ.บรมราชชนนี เขตตลิ่งชัน ,,,กรุงเทพฯ,base.th,"02-4489091,02-4489050",,,TRUE,,กรุงเทพฯ สุราษฎร์ ชุมพร นครศรีฯ ทุ่งสง  หาดใหญ่ สงขลา ภูเก็ต กระบี่ พังงา ตรัง ปัตตานี พัทลุง ยะลา นาสาร โคกกลอย อ.บ้านตาขุน,
partner_shipper_south_59,ศรีรุ่งเรืองชัย เอ้กซเพรส,south,3/24 หมู่9 ซ.สนามกีฬาฯ ,ถ.มณฑลสาย2 แขวง/เขตทวีวัฒนา ,,กรุงเทพฯ,base.th,02-887-0916-7,,,TRUE,,กรุงเทพฯ,
partner_shipper_south_60,ข้ามสมุทรขนส่ง,south,7 หมุ่9 ถ.พุทธมณฑลสาย2 ทวีวัฒนา,,,กรุงเทพฯ,base.th,"0-2887-0368-9,08-6554-0368",,,TRUE,"ระนอง 0-7782-3649, 0-7781-3184",กรุงเทพฯ ระนอง กระบุรี กะเปอร์ สุขสำราญ คุระบุรี,
partner_shipper_south_61,111ขนส่ง,south,,,,กรุงเทพฯ,base.th,"074-333777,086-9650111,02-4296184,083-1832111",,,TRUE,,สงขลา ,
partner_shipper_south_62,แพปลาสมบัติวัฒนาขนส่ง,south,135/27-28 บ้านเจริญนคร ถ.นาเกลือ ,ต.อาเนาะรู อ.เมือง จ.ปัตตานี,,กรุงเทพฯ,base.th,"073-332392-3,334614-16",,,TRUE,"สาขากรุงเทพฯ 02-8859018-19,081-6087204 สาขาหาดใหญ่ 074-427202-03 สาขาสตูล 074-721333",กรุงเทพฯ-หาดใหญ่ -สงขลา-สตูล-ปัตตานี-ยะลา-นราธิวาส,
partner_shipper_south_63,มหาลาภพูนทวี,south,75ถ.อนุสาวรีย์อาจารย์ทอง ,ต.หาดใหญ่ อ.ห่ดใหญ่ จ.สงขลา,,กรุงเทพฯ,base.th,"074-366842,366843,366844",,,TRUE,"สาขากรุงเทพฯ 02-8880786,8880778",สงขลา-หาดใหญ่-สะเดา-ปาดังเบซาร์-กทม.ฯ,
partner_shipper_south_64,ทรัพย์ไพศาลทัวร์,south,,,,กรุงเทพฯ,base.th,,,,TRUE,กรุงเทพฯ 02-4223100,กรุงเทพฯ ทุ่งสง ตรัง พัทลุง สตูล สุราษฎร์,
partner_shipper_south_65,หาดใหญ่ทัวร์ขนส่ง,south,12ถ.สายเอเชีย (หัวสะพานลอยคลองหวะด้านขวา ทางไปนาหม่อม),,,กรุงเทพฯ,base.th,"074-217378,074-217379,080-7163938",,,TRUE,"สนง.หังลำโพง 02-2216850,084-9962648 สนง.พุทธมณฑลสาย3 02-8890981,089-7362806",หาดใหญ่-สงขลา- สะเดา -คลองแงะ- ปาตังฯ- นาทวี-จะนะ- ยะลา -ปัตตานี -นาราธิราช-โกลก,
partner_shipper_south_66,โชคสถาพรขนส่งพังงา,south,7/6ถ.พุทธมลฑลสายแขวงทวีพัฒนา ,,,กรุงเทพฯ,base.th,02-4481998,,,TRUE,"พังงา 076-442414,08-97240429",กรุงเทพฯ-พังงา-โคกกลอย-ท้ายเหมือง-ตะกั่วทุ่ง- ทับปุด-อ่าวลึก-ปลายพระยา,
partner_shipper_south_67,กระบี่นครการขนส่ง,south,136-136/1 เชิงสะพานต่างระดับสินพลี ถ.กาญจณาภิเษก ,บางระมาด,,กรุงเทพฯ,base.th,"0-2885-846,02-8858747,028858748",,,TRUE,สาขาสุราษฎร์08-9203-5895,สุราษฎร์ฯ นครศรีฯ กระบี่ ตรัง ทุ่งสง,
partner_shipper_south_68,สมุยขนส่ง,south,136/3 (ข้างปลั๊มเอสโซ่)ถ.กาญจณาภิเษก บางระมาด ตลิ่งชัน,,,กรุงเทพฯ,base.th,0-7742-4206,,,TRUE,"เกาะสมุย0-7742-4206,08-1537-5417",เกาะสมุย- เกาะพงัน,
partner_shipper_south_69,กนกสยามนครการขนส่ง,south,501ถ.บางแวก แขวงบางไผ่ เขตบางแค ,,,กรุงเทพฯ,base.th,"0-2887-1686,0-2887-1767,02887-1959,0-2887-1455",,,TRUE,กระบี่0-7561-1677 นครศรีฯ0-7531-4044 ตรัง 0-7521-1788,กระบี่ นครศรีฯ ตรัง ทุ่งสง สุราษฎร์ฯ,
partner_shipper_south_70,ป.กิติขนส่ง,south,10/14ม.1 ต.พะวง อ.เมือง ,,,กรุงเทพฯ,base.th,"081-5144529,089-7350615,086-9584851",,,TRUE,"กรุงทพฯ02-8894744,089-466152",กรุงเทพฯ -สงขลา,
partner_shipper_south_71,ภัทรนันท์ขนส่ง,south,11/49ถ.เอกชัย ซ.94 แขวนบางบอน,,,กรุงเทพฯ,base.th,0-28990-8897,,,TRUE,"ยะลา073-214-413,081-277-3444",กรุงเทพฯ ยะลา,
partner_shipper_south_72,รวมมิตรนครขนส่ง,south,490-492ถ.อุทยาน พุทธมณฑล สาย3 หมู่บ้านขุมทรัพย์,,,กรุงเทพฯ,base.th,02-8880764-02-8882076,,,TRUE,นครศรีฯ075-3563888,กรุงเทพฯ นครศรีธรรมราช,
partner_shipper_south_73,รัชพลขนส่ง,south,602-4 ถ.พุทธมณฑลสาย3 หมุ่บ้านขุมทรัพย์นคร ,เขตทวีวัมนา,,กรุงเทพฯ,base.th,"02-441-3820,02-441-3821",,,TRUE,"สนง.ตะกั่วป่า 076-421136,431616",,
partner_shipper_south_74,ภาคใต้เทเล่อร์ขนส่ง,south,31/23ถ.สายบางแวก แขวงบางไผ่ เขตภาษีเจริญ,,,กรุงเทพฯ,base.th,"02-4103138,081-3140533,081-4389755",,,TRUE,"ตรัง 075-210401,081-3963444,081-3969457",กรุงเทพฯ ตรัง,
partner_shipper_south_75,ปิยวัฒน์ทรานสปอร์ต,south,497/19ถ.นครนอก ต.บ่อยาง อ.เมือง,,,กรุงเทพฯ,base.th,"02-8925113,086-6921992ม085-8922268",,,TRUE,"สนง.หาดใหญ่ 074-427787-8,085-8922256",กรุงเทพฯ สงขลา หาดใหญ่,
partner_shipper_south_76,ภูเก็ตมั่นคง,south,82/60หมู่19 ถ.พุทธมณฑลสาย 2 ศาลาธรรมสพน์ ทวัวัฒนา,,,กรุงเทพฯ,base.th,"0-2448-1315,0-2448-1005,08-6312-7164,08-6312-7165",,,TRUE,"ภูเก็ต 0-7623-5013-4,08-9729-3230,08-6310-4267,08-6310-4481",กรุงเทพฯ ภูเก็ต,
partner_shipper_south_77,ปรีดดาภาคใต้,south,31/10ถ.บางแวก (ติดกับถนนวงแหวนรอบนอก) แขวงบางไผ่ เขตภาษีเจริญ,,,กรุงเทพฯ,base.th,"0-2410-3420,0-2410-3160",,,TRUE,"สนง.ชุมพร 0-7764-3310,08-1970-5149 สนง.หลังสวน 0-7754-1946,09669-6376",กรุงเทพฯ ชุมพร,
partner_shipper_south_78,ตั้งอี่ฮั้ว ขนส่ง,south,81/78 หมู่ 19 แขวง ศาลาธรรมสพน์  เขตทวัวัมนา,,,กรุงเทพฯ,base.th,0-2887-4580-1,,,TRUE,,,   
partner_shipper_northeast_1,สมพงษ์ขนส่ง(อุบลรัตน์)ขนส่ง,northeast,106-108 หมู่ 12 หมู่บ้านขุมทรัพย์นคร สาย 3 ซ.16/1,,,,base.th,"081-4242245,089-2110968",,,TRUE,"ขอนแก่น 086-8713873,087-2366024,0836634417,086-8713692",ขอนแก่น มหาสารคาม กาฬสินธุ์ (เข้าทุกอำเภอ),
partner_shipper_northeast_2,ภูเขียวรุ่งเรืองขนส่ง,northeast,423 ซ.16/5 สาย 3 หมู่บ้านขุมทรัพย์นคร แขวงศาลาธรรมสพน์,,,,base.th,086-1630944,,,TRUE,"ภูเขียว 081-0518979, 085-6583659",ชัยภูมิ ภูเขียว แก้งคร้อ เกษตรฯหนองบัวแดง บ้านแท่น คอนสวรรค์ คอนสาร ชุมแพ,
partner_shipper_northeast_3,สหะสัมพันธ์ทรานสปอร์ต,northeast,100/125 สาย 2 ซ.24 แขวงศาลาธรรมสพน์,,,,base.th,02-8857737-70,02-8857741,,TRUE,"สุรินทร์ 081-9766099, อุบล-0866777698,สกลนคร 085-0004480,ร้อยเอ็ด 089-1067698,ชัยภูมิ 089-4233951,ขอนแก่น 089-2239176,เลย 080-0230119,โคราช 088-5863897,สรีสะเกษ 089-5847070,อุดร 089-1417698,หนองคาย 080-7441910,มุกดาหาร 081-9867983",ทั่วภาคอีสาน,
partner_shipper_northeast_4,บิ๊กบ๊อก โลจิสติกส์,northeast,52/12 หมู่ 7 พุทธมณฑลสาย 3 ทวีวัฒนา(700เมตรจากวัดโกมุทพุทธรังสีไปทางแยกทวีวัฒนา),,,,base.th,"02-4414951-2, 081-2617222",02-4414953,,TRUE,"ร้อยเอ็ด 043-519917,081-9753666",ร้อยเอ็ด,
partner_shipper_northeast_5,เรืองกิจร้อยเอ็ดขนส่ง,northeast,19/7 หมู่ 9 ซ.สนามกีฬาฯ ทวีวัฒนา,,,,base.th,02-8874325-6,02-8874327,,TRUE,"ร้อยเอ็ด 043-524596,087-2680462,083-0602881,สารคาม 087-2264699,043-524123,กาฬสินธุ์ 043-851342",ร้อยเอ็ด มหาสารคาม กาฬสินธุ์,
partner_shipper_northeast_6,สายสี่กาฬสินธุ์ขนส่ง,northeast,30/41 ถ.พุทธมณฑลสาย 4 ต.กระทุ่มล้ม,,,,base.th,"086-1725037,089-7857979",,,TRUE,กาฬสินธุ์ 080-1986050,กาฬสินธุ์ ยางตลาด สมเด็จ กมลาไสย,
partner_shipper_northeast_7,ด่วนหนองคาย,northeast,74/31 ถ.รองเมือง ข้างทางรถไฟหัวลำโพง,,,,base.th,"02-2191829,086-9965262,084-1585662",,,TRUE,"หนองคาย 042-464477,081-7172042,083-1470373/อุดร 042-322598,080-1773020,084-7890223/ขอนแก่น 043-465458,088-0670527,087-5205449",หนองคาย อุดร ขอนแก่น,
partner_shipper_northeast_8,ป.สกล,northeast,ตลาดทะเลไทย,,,,base.th,085-265756,,,TRUE,"สกลนคร,นครพนม 042-971142/กาฬสินธุ์ ร้อยเอ็ด,มหาสารคาม 043-830415,0872246099","สกลนคร นครพนม กาฬสินธุ์ สารคาม ร้อยเอ็ด ต่างอำเภอของจังหวัดร้อยเอ็ด,มหาสารคาม",
partner_shipper_northeast_9,ก.กรุงศรีขนส่ง,northeast,90/151-154 ถ.พุทธมณฑลสาย 4 ต.อ้อมน้อย,,,,base.th,"ติดต่อคุณชัยโรจน์(แจ็ก)089-6632230,02-8131548",,,TRUE,"อุดร ติดต่อคุณบุษดี(ดี) 089-7103983,042-205118",,
partner_shipper_northeast_10,SP สกล-นครฯขนส่ง,northeast,พุทธมณฑลสาย 2,,,,base.th,"02-8891983,082-2272843,080-1974814",,,TRUE,สกลนคร 081-7685477,สกลนคร อากาศ วานร พังโคน วาริช พรรณา บ้านม่วง คำตากล้า เจริญศิลป์ นครพนม นาหว้า ศรีสงคราม บ้านแพง บึงกาฬ เซกา พรเจริญ ศรีวิไล,
partner_shipper_northeast_11,การค้าขนส่งวุฒิเจริญ,northeast,132/2 หมู่ 9 ถ.กาญจนาภิเษก ทวีวัฒนา,,,,base.th,02-8858701-3,02-8858703,,TRUE,,อุดรธานี,
partner_shipper_northeast_12,นครราชสีมาพัฒนาขนส่ง,northeast,44/2 หมู่ 5 ถ.วงแหวนรอบนอก บางบอน ,,,,base.th,"02-8951143,02-4163282,081-9494012,086-5669844",,,TRUE,โคราช 258441,โคราช,
partner_shipper_northeast_13,อุบลพรชัยขนส่ง,northeast,372 ซ.16/4 ถ.พุทธมณฑลสาย 3 แขวงศาลาธรรมสพน์,,,,base.th,"02-8880995,081-6399381",,,TRUE,"อุบล 045-241852,250744",อุบล เดชอุดม,
partner_shipper_northeast_14,ดาวศรีบุญลือขนส่ง(จำปี),northeast,18-184 หมู่บ้านขุมทรัพย์นคร ถ.พุทธมณฑลสาย 3,,,,base.th,"02-8880980,02-8880549",,,TRUE,"กาฬสินธุ์ 043-811983,081-9651613,085-4521113/ มหาสารคาม 086-2370202",กาฬสินธุ์ สารคาม รับเหมาส่งทั่วภาคอีสาน,
partner_shipper_northeast_15,ตั้งง่วนหลีขนส่ง,northeast,ถ.พุทธมณฑลสาย 3,,,,base.th,"02-4413022-3,081-5622367,081-3722510 คุณธีรยุทธ",,,TRUE,"อุบล 045-311031,285223",อุบลราชธานี,
partner_shipper_northeast_16,เอี๋ยวฮงขนส่ง,northeast,135/19 หมู่ 19 ถ.พุทธมณฑลสาย 2,,,,base.th,"02-4481982-3,02-8871460",02-4481982,,TRUE,"ชัยภูมิ 044-812261, 081-4970805",ชัยภูมิ บ้านค่าย จัตุรัส หนองบัวระเหว เนินสง่า,
partner_shipper_northeast_17,ขอนแก่นขนส่งและการเกษตร,northeast,สาขาพุทธมณฑลสาย 2 : 12/45 หมู่ 7 แขวงบางไผ่ เขตบางแค,,,,base.th,"02-4103439,02-8653739",02-4103439,,TRUE,สาขาขอนแก่น(ออฟฟิศ) 043-221690,ขอนแก่น,
partner_shipper_northeast_18,ขอนแก่นขนส่งและการเกษตร,northeast,สาขาถ.มหานคร :39 ถ.มหานคร แขวงมหาพฤฒาราม บางรัก,,,,base.th,"02-6330725,02-2362054",02-2362054,,TRUE,"สาขาขอนแก่น(โกดัง) 043-221309,271747",ขอนแก่น,
partner_shipper_northeast_19,จึงชุนเซ้งขนส่ง-รถด่วน อุดร-ขอนแก่น,northeast,55/51 หมู่ 9 เขตทวีวัฒนา แขวงทวีวัฒนา,,,,base.th,"02-4495510,081-8717789",02-4495797,,TRUE,"อุดร 042-242411,081-8724004/ ขอนแก่น 086-6427285,084-5100142",อุดรธานี ขอนแก่น,
partner_shipper_northeast_20,กิจสุนทรขนส่ง(เค เอส ที),northeast,ศูนย์รวมขนส่ง 3 :7/17 ถ.พุทธมณฑลสาย 2 หมู่ 9 ทวีวัฒนา,,,,base.th,"02-8870343-4,081-6609573",02-8870344,,TRUE,"ยโสธร 045-711326,712278,720278,086-8746464",ยโสธร,
partner_shipper_northeast_21,บุรีรัมย์พนมรุ้งขนส่ง,northeast,82/83 หมู่ 19 ถ.พุทธมณฑลสาย 2 ทวีวัฒนา,,,,base.th,"02-8874134,081-8787889",,,TRUE,"บุรีรัมย์ 044-613129,087-7957096 / นางรอง 083-4654664,085-4798280",บุรีรัมย์ นางรอง,
partner_shipper_northeast_22,สุรินทร์พนมรุ้งขนส่ง,northeast,82-83 ถ.พุทธมณฑลสาย 2 ทวีวัฒนา,,,,base.th,"02-8874135,083-3659898",,,TRUE,"สุรินทร์ 044-143054,081-7251664",สุรินทร์,
partner_shipper_northeast_23,ใหญ่ขนส่งชัยภูมิ,northeast,10/24 หมู่ 9ศูนย์ขนส่ง 2 ถ.บางแวก แขวงบางไผ่ เขตบางแค,,,,base.th,"02-887473 , 087-8760333",,,TRUE,"ชัยภูมิ 044-830946, 089-2803673",ชัยภูมิ,
partner_shipper_northeast_24,ศักดิ์สุเมธขนส่ง,northeast,246 หมู่ 6(ใกล้แยกไฟแดง วัดบุญประดิษฐ์) สาย 2 บางแคเหนือ,,,,base.th,"086-2258596,088-0340272",,,TRUE,"อุดรธานี 042-243863,088-0340271,083-1495040,089-7145700",อุดรธานี,
partner_shipper_northeast_25,ลี้ฮะจักขนส่ง,northeast,513 ศูนย์รวมขนส่ง 2 ถ.บางแวก แขวงบางไผ่,,,,base.th,"02-4482873,024482930-1",,,TRUE,"มหาสารคาม 043-712851 เมืองพล 043-416033 ขอนแก่น 043-270693,081-0491729 บ้านไผ่ 043-274443,043273880",มหาสารคาม ขอนแก่น เมืองพล บ้านไผ่,
partner_shipper_northeast_26,ชั่งอุ่งขนส่ง,northeast,33/12 หมู่ 19 สมาคมชาวปักษ์ใต้ ถ.กาญจนาภิเษก สาย 2,,,,base.th,02-8858706,,,TRUE,"เมืองพล 043-414012,414073 บ้านไผ่ 043-274213",เมืองพล  บ้านไผ่,
partner_shipper_northeast_27,รวมมิตรหล่มสักขนส่ง,northeast,226 หมู่ 12 ม.ขุมทรัพย์นคร สาย 3 ทวีวัฒนา,,,,base.th,"02-8881108-9,02-8881806",,,TRUE,หล่มสัก 056-701123,หล่มสัก ด่านซ้าย,
partner_shipper_northeast_28,อุดมศักดิ์ ก๊กเอ็ง ทรานสปอร์ต,northeast,18/3 หมู่ 1 สาย 3 สี่แยกสนามกีฬาฯ ทวีวัฒนา,,,,base.th,02-8006863-66,02-8006600,,TRUE,"โคราช 044-241173,258695 โกดัง 044-265481",โคราช และต่างอำเภอ,
partner_shipper_northeast_29,อุดมพรขนส่ง,northeast,266-268 ถ.พุทธมณฑลสาย 3 หมู่บ้านขุมทรัพย์,,,,base.th,"02-8880796,086-2243119,086-2244218",,,TRUE,"อุดร 042-321605,081-0571439",อุดร กุมภวาปี หนองหาน บ้านดุง บ้านผืด โพนพิสัย หนองคาย ปากคาด บึงกาฬ หนองบัว นากลาง,
partner_shipper_northeast_30,ส.แก่นนครพัฒนาการขนส่ง,northeast,433 ถ.บางแวก แขวงบางไผ่ เขตบางแค,,,,base.th,"โกดัง 02-8653492,081-350527,086-9979483/สนง 02-4103423",02-4103430,,TRUE,"ขอนแก่น 043-344969,468117/บ้านไผ่ 043-329717,081-3927959/สารคาม 081-8714206,043-721297/กาฬสินธุ์ 043-821384,081-2626037,089-4200442/ท่าบ่อ 084-5132621,042-431526",ขอนแก่น บ้านไผ่ มหาสารคาม กาฬสินธุ์ ท่าบ่อ ศรีเชียงใหม่,
partner_shipper_northeast_31,เจี่ยเจ็งกี่,northeast,7/13 ถ.พุทธมณฑลสาย 2 ซอย 17 ทวีวัฒนา,,,,base.th,"02-8870109, 02-8870110",,,TRUE,"มุกดาหาร 042-611301,611407",มุกดาหาร,
partner_shipper_northeast_32,อีสานเอ็กซ์เพรส(หจก.หนองคาย-อุดรเอ็กซ์เพรส),northeast,82/70 หมู่ 19 ถ.พุทธมณฑลสาย 2(ศุนย์ขนส่งแอลเอสอาร์) ทวีวัฒนา,,,,base.th,"02-8872161-2 , 086-4653477",,,TRUE,"หนองคาย 042-465446-7,086-5804228 /อุดรธานี 085-8520202,086-4653478-9",หนองคาย อุดร ,
partner_shipper_northeast_33,โชคบุญนำพัฒนาขนส่ง(2005),northeast,82/75 หมู่19 ถ.พุทธมณฑลสาย 2 แขวงศาลาธรรมสพน์ ทวีวัฒนา,,,,base.th,"02-8874328,02-8874329",,,TRUE,"อุดร 042-322068 หนองคาย 042-2411534,042-412954,สว่างแดนดิน 042-204254",อุดร หนองคาย พังโคน สว่างแดนดิน,
partner_shipper_northeast_34,ตังเซ้งยโสธรขนส่ง,northeast,481 ถ.กาญจนาภิเษก(หน้าศาลเจ้าแม่ทับทิม) แขวงหลักสอง บางแค,,,,base.th,02-8037066-7,02-8037068,,TRUE,ยโสธร 045-724318 มุกดาหาร 042-612153,ยโสธร มุกดาหาร,
partner_shipper_northeast_35,ส.เจริญกิจขนส่ง,northeast,82/67 หมู่ 19 ถ.พุทธมณฑลสาย 2 แขวงศาลาธรรมสพน์ ทวีวัฒนา,,,,base.th,02-8874350,02-8874351,,TRUE,"ศรีสะเกษ 045-620159,045-643777",ศรีสะเกษ,
partner_shipper_northeast_36,ปากช่องขนส่ง(โคราช),northeast,135/21 ถ.พุทธมณฑลสาย 2 บางแค ตลิ่งชัน,,,,base.th,"02-4482033,028870407-8, 082-0626958",,,TRUE,"ปากช่อง 044-313522,044-311783 นครราชสีมา 044-342098,044-265505,081-6606145",นครราชสีมา ปากช่อง,
partner_shipper_northeast_37,นิวปากช่องเชียงฮงขนส่ง,northeast,150-152 ม.ขุมทรัพย์นคร ถ.พุทธมณฑลสาย 3 ซ.5 ตลิ่งชัน,,,,base.th,"02-8881952,02-8881026",,,TRUE,"ปากช่อง 044-311462,044-312836",มวกเหล็ก กลางดง ปากช่องสีคิ้ว หนองสาหร่าย ป่าไผ่ และรับเหมาคันทั่วราชอาณาจักร,
partner_shipper_northeast_38,สหนำโชคขนส่ง,northeast,30/53 หมู่ 6 ถ.พุทธมณฑลสาย 4 ต.กระทุ่มล้ม,,,,base.th,"02-4296319,081-5927737",02-4296319,,TRUE,"สุรินทร์ 089-9484826,0804045522/ศรีสะเกษ 045-631565,0874414179/ร้อยเอ็ด 043-526055,081-3910299",สุรินทร์ ศรีสะเกษ ร้อยเอ็ด,
partner_shipper_northeast_39,เศรษฐีอีสานขนส่ง(มหาสารคาม),northeast,82/58 หมู่ 19 ถ.พุทธมณฑลสาย 2 ศาลาธรรมสพน์ ทวีวัฒนา,,,,base.th,02-8874605-6,02-8874607,,TRUE,"มหาสารคาม 043-722199,043-740198 /เมืองพล 043414690 / บ้านไผ่ 043-274978/ ขอนแก่น 043-241379",มหาสารคาม เมืองพล บ้านไผ่ ขอนแก่น,
partner_shipper_northeast_40,อุดรสหเจริญไพศาลขนส่ง(พิกุลทรัพย์),northeast,3/30 หมู่ 1 ถ.ทวีวัฒนา(สาย2) ทางเข้าสนามกีฬาฯ ทวีวัฒนา,,,,base.th,"02-8872240-1,089-7101777,081-6155255",,,TRUE,"อุดรธานี 042-346242,348215,081-2608992,086-8557771",อุดรธานี กุดจับ บ้านผือ น้ำโสม กุมภวปี ศรีธาตุ,
partner_shipper_northeast_41,ชัยภูมิขนส่ง,northeast,3/32 ซ.สนามกีฬาฯ ถ. ทวีวัฒนา (พุทธมณฑลสาย2),,,,base.th,02-8872319-20,,,TRUE,ชัยภูมิ 044-811700,ทุกอำเภอในจังหวัดชัยภูมิ และอ.บัวใหญ่,
partner_shipper_northeast_42,ม่งเส็งบุรีรัมย์ขนส่ง,northeast,กรุงเทพ 1 566-568 ถ.พุทธมณฑลสาย 3 ,,,,base.th,02-8873258-9,,,TRUE,บุรีรัมย์ 044-612925,,
partner_shipper_northeast_43,ม่งเส็งบุรีรัมย์ขนส่ง,northeast,กรุงเทพ 2 ซอยสว่าง,,,,base.th,02-6332816,,,TRUE,สุรินทร์ 044-538321,,
partner_shipper_northeast_44,ม่งเส็งบุรีรัมย์ขนส่ง,northeast,กรุงเทพ 3 สถานีพุทธมณฑล,,,,base.th,02-8894781,,,TRUE,นางรอง 044-631086,,
partner_shipper_northeast_45,จิ้นเซ้งขนส่ง,northeast,136/5 เชิงสะพานต่างระดับ ถ.กาญจนาภิเษก แขวงบางระมาด ตลิ่งชัน,,,,base.th,"02-8858372,089-9797727",,,TRUE,นครราชสีมา 044-920301-2,นครราชสีมา,
partner_shipper_northeast_46,กิตติกมลขนส่ง,northeast,108/29 ถ.พุทธมณฑลสาย 2 แขวงแคเหนือ บางแค,,,,base.th,"02-8053495-6,081-9886875",,,TRUE,"ขอนแก่น 043-326599 /ชัยภูมิ 044-835153,081-7902761",ขอนแก่น ชัยภูมิ จัตุรัส หนองบัวระเหว บ้านค่าย,
partner_shipper_northeast_47,นิวหม่งเส็งโคราชขนส่ง,northeast,698 ถ.พุทธมณฑลสาย 3(ใกล้วัดโกมุท) แขวงศาลาธรรมสพน์,,,,base.th,"02-4414745, 087-9592275",,,TRUE,นครราชสีมา 044-258743,นครราชสีมา,
partner_shipper_northeast_48,เขื่อนขันธ์รุ่งเรืองขนส่ง,northeast,100/120 ถ.พุทธมณฑลสาย 2 ซ.24 แขงศาลาธรรมสพน์,,,,base.th,"02-8858441,086-4650792,087-2266969",,,TRUE,"หนองบัวลำภู 042-313322,081-6613046,081-9656970",หนองบัวลำภู ทุกอำเภอ สุวรรณคูหา บ้านผืด น้ำโสม(อุดรธานี),
partner_shipper_northeast_49,จีแอล ทรานสปอร์ต (สนง),northeast,99/21 หมู่ 12 ซ.เพชรเกษม 73/1 แขวงหนองค้างพลู เขตหนองแขม,,,,base.th,"02-8891990,081-9174894",02-8891990,,TRUE,"กันทรลักษ์ 045-661375,089-589918",รับจ้างแบบเหมาคัน ขุขันธ์ ศรีสะเกษ ขุนหาญ,
partner_shipper_northeast_50,จีแอล ทรานสปอร์ต (สาขา),northeast,รับส่งสินค้า 981 ม.อมรชัย 3 ถ.ศาลาธรรมสพน์ ทวีวัฒนา,,,,base.th,083-9042420,,,TRUE,,กันทรลักษ์ โนนคูณ วาริน และอุบล,
partner_shipper_northeast_51,ยงเส็ง(2553)ขนส่ง,northeast,31/36 หมู่ 9 ถ.บางแวก แขวงบางไผ่ เขตบางแค,,,,base.th,"02-4103180,086-3286368",,,TRUE,"ศรีสะเกษ 045-643758,083-7356478,083-7348039/ อุบล 088-1286495",ศรีสะเกษ อุบลราชธานี,
partner_shipper_northeast_52,พรชัย เลยขนส่ง,northeast,45/60-61 หมู่ 6 ถ.พุทธมณฑลสาย 4 ต.กระทุ่มล้ม,,,,base.th,"02-4292802,084-1188821,08989488818",02-4292803,,TRUE,เลย 089-1230688,เลย วังสะพุง เชียงคาน ภูเรือ ภูกระดึง ด่านซ้าย ท่าลี่ นาด้วง ปากชม,
partner_shipper_northeast_53,ม่งเส็งศักดิ์ชัยขนส่ง,northeast,409 ถ.บางแวก แขวงบางไผ่ เขตบางแค,,,,base.th,"02-4103429,4103424",02-4103179,,TRUE,"สุรินทร์ 044-518139,081-6288487/บุรีรัมย์ 044-620338,081-6393423,นางรอง 044-622468,086-2563579",สุรินทร์ บุรีรัมย์ นางรอง,
partner_shipper_northeast_54,"สหอุบล คาร์โก้ ยโสธร,อำนาจ,ศรีสะเกษ",northeast,786 ถ.กรุงเกษม(ทัวร์สหมิตรเดิม),,,,base.th,"02-2825271, 081-4903946",,,TRUE,อุบล 045-262848,,
partner_shipper_northeast_55,มหาโชค(โคราช)ขนส่ง,northeast,19/3 หมู่ 6 ซ.สนามกีฬา ราชดำเนิน ทวีวัฒนา,,,,base.th,089-7175249,,,TRUE,โคราช 085-7660503,โคราช,
partner_shipper_northeast_56,เอสเอ็ม-วัน ทรานสปอร์ต,northeast,5/19 ถ.เจริญเมือง รองเมือง ปทุมวัน,,,,base.th,"02-2161239, 084-7678588",,,TRUE,,หนองคาย ,
partner_shipper_northeast_57,สิริพารา ทรานสปอร์ต,northeast,719/12 ถ.พระราม 6(ถ.บรรทัดทอง) แวงวังใหม่ ปทุมวัน,,,,base.th,"02-6117320, 086-3388461",02-2191915,,TRUE,,มุกดาหาร,
partner_shipper_northeast_58,อินเตอร์เอ็กซ์เพรสโลจิสติกส์ ,northeast,1138/117 ถ.พระราม 3 บางโพงพาง ยานนาวา,,,,base.th,02-6823101,02-6823104,,TRUE,,เสิงสาง,
partner_shipper_central_1,โชควิชัยบ้านาขนส่ง(เต็กกี่),central,4 ถ.22 กรกฏา (ปากซอย) ตรอกถั่งงอก ,ติดกับคุงเจริญขนส่ง วงเวียน 22,,กรุงเทพฯ,base.th,"02-2225600,084-6575327",,,TRUE,,วังน้อย หนองแค หินกอง วิหารแดง บ้านนา นครนายก องครักษ์ คลอง 14-13-10-8-76-5,
partner_shipper_central_2,คุงเจริญขนส่ง,central,วงเวียน 22 ตรอกถั่วงอก,,,กรุงเทพฯ,base.th,"02-2232700,022217446",,,TRUE,"นครนายก 037-311825,311630",นครนายก,
partner_shipper_central_3,ชัยมงคลขนส่ง,central,38 หมู่ที่ 12 ซ.ปิ่นเกล้ารุ่งเรือง ซ.1 เซเว่น สาย 3 ทวีวัฒนา,,,กรุงเทพฯ,base.th,02-4413945,,,TRUE,"นครนายก 037-312396 , 081-4348150",นครนายก ปราจีนบุรี,
partner_shipper_central_4,ชัยมงคลขนส่ง,central,339 จักรวรรดิ์ กรุงเทพ,,,กรุงเทพฯ,base.th,"02-2217364,02-2210593",,,TRUE,,นครนายก ปราจีนบุรี,
partner_shipper_central_5,พรกิจขนส่ง (สาขา 1),central,316/6 ตรงข้ามตรอกห้านาย ถ.มหานคร ซ.สว่าง 1 บางรัก,,,กรุงเทพฯ,base.th,"02-8882033 กด 1, 081-9414207",,,TRUE,พัทยา 038-225336,บางพระ ศรีราชา อ่าวอุดม แหลมฉบัง โรงโป๊ะ,
partner_shipper_central_6,พรกิจขนส่ง (สาขา 2),central,484-486 สาย 3 ทวีวัฒนา,,,กรุงเทพฯ,base.th,"02-8882033 กด 0 ,02-8880535,02-8880536",,,TRUE,,นาเกลือ พัทยา นาจอมเทียน บ้านอำเภอ สัตหีบ บ้านฉาง มาบตาพุด,
partner_shipper_central_7,ล.มั่นคงขนส่ง,central,132 ซ.5 หมู่บ้านขุมทรัพย์นคร สาย 3,,,กรุงเทพฯ,base.th,"02-8881163, 087-3368973",,,TRUE,อรัญประเทศ 037-223153,อรัญประเทศ วัฒนานคร,
partner_shipper_central_8,อรัญ-วินัยขนส่ง,central,56-61 หมู่ 12 ซ.รุ่งเรือง สาย3,,,กรุงเทพฯ,base.th,"02-8880447,081-3194913",,,TRUE,อรัญประเทศ 037-231376,อรัญประเทศ ตลาดโรงเกลือ,
partner_shipper_central_9,ทวีทรัพย์ระยองขนส่ง,central,70/14 ถ.ทวีวัฒนา-กาญจนาภิเษก ซ.29 ทวีวัฒนา,,,กรุงเทพฯ,base.th,"086-3558484,089-2458855,02-4315432",02-4315433,,TRUE,"ระยอง 038-622111,038-874590-1,086-3455656",ระยอง,
partner_shipper_central_10,ทวีทรัพย์ชลบุรีขนส่ง,central,236 ศูนย์ขนส่งขุมทรัพย์นคร ถ.พุทธมณฑลสาย 3,,,กรุงเทพฯ,base.th,"02-8881104,0800834070,0800813785",,,TRUE,,ชลบุรี บ้านบึง หนองมน บางพระ ศรีราชา อ่าวอุดม นาเกลือ บางละมุง พัทยา,
partner_shipper_central_11,แสงเจริญบริการขนส่ง,central,3/31 หมู่ 9 โครงการชัยพงศ์ 2 สาย 2 ทวีวัฒทา,,,กรุงเทพฯ,base.th,"02-4482978,02-8872675",,,TRUE,ตราด 039-511025,ตราด,
partner_shipper_central_12,รุ่งโรจน์ขนส่ง,central,33 หมู่ 12 ถ.ปิ่นเกล้า-นครชัยศรี สาย 3 แขวงศาลาธรรมสพน์ ,,,กรุงเทพฯ,base.th,"02-8881225,081-6580100",,,TRUE,ราชบุรี 032-314267,ราชบุรี,
partner_shipper_central_13,ส.อุดมสินขนส่ง,central,166 ศูนย์ขนส่งขุมทรัพย์ยคร ซ.4  สาย3 ทวีวัฒนา,,,กรุงเทพฯ,base.th,"02-8880441,086-3018049",02-8880441,,TRUE,"ชลบุรี 086-3515741,087-6182578",ชลบุรี - ทุกอำเภอ,
partner_shipper_central_14,นิวกมลชัยขนส่ง,central,24 หมู่ 12 ซขุมทรัพย์นคร (ซอยหนึ่ง),ถพุธมณฑณ สาย 3 เขตทวีพัฒนา,,กรุงเทพฯ,base.th,"02-8881856,089-5291881,08-92254896,08-65173792",,,TRUE,,สระบุรี แก่งคอย มวกเหล็ก หินกอง หนองแค วังน้อย ทับกวาง เฉิมพระกะเกรียติ วิหารแดง พระบาท เสาไห้ ท่าเรือ ท่าลาน บ้านหมอ ภาชี บ้านนา นครนายก,
partner_shipper_central_15,ลาภมงคลขนส่ง,central,66ถนนพุทธมณฑลสาย 3 เขตทวีวัฒนา,,,กรุงเทพฯ,base.th,"03-5611771,01-3007133",02-8880423,,TRUE,,"อ่างทอง วิเศษชัยชาญ-โพธิ์ทอง,แสวงหา,ป่าโมก,ไชโย",
partner_shipper_central_16,วสันต์สมุทรขนส่ง,central,3/45 ซอยสนามกีฬาฯ ถ.ทวีวัฒนา แขวงทววัฒนา กรุงเทพฯ,,,กรุงเทพฯ,base.th,"02-8870919,02-8870920",02-8870968,,TRUE,"ตราด03-9511259,คลองใหญ่ 03-9581154,03-9581483",ตราด-คลองใหญ่,
partner_shipper_central_17,ศิริพันธุ์ขนส่ง,central,พุทธมณฑลสาย3 236 หมู่บ้านขุมทรัพย์,,,กรุงเทพฯ,base.th,02-8881104,,,TRUE,,ชลบุรี บ้านบึง หนองมน บางพระ ศรีราชา อ่าวอุดม นาเกลือ บางละมุง พัทยา,
partner_shipper_central_18,โชคบุญมาขนส่ง,central,799 ถ.พระราม 3 ชอย 41 แขวงบางโพงงาม เขตยานนาวา กรุงเทพฯ,,,กรุงเทพฯ,base.th,"02-2943076,",,,TRUE,,หนองมน ศรีราชา บ่อวิน แหลมฉบัง นาเกลือ พัทยา สัตหีบ บ้านฉาง มาบตาพุด ปลซกแดง กิ่งนิคมพัฒนา,
partner_shipper_central_19,โชคบุญมาขนส่ง,central,248-250 หมู่บ้านขุมทรัพย์ พุทธมณฑลสาย 3ซอย 16/3 กรุงเทพฯ,,,กรุงเทพฯ,base.th,"08-18654216,03-8769989",,,TRUE,,หนองมน ศรีราชา บ่อวิน แหลมฉบัง นาเกลือ พัทยา สัตหีบ บ้านฉาง มาบตาพุด ปลซกแดง กิ่งนิคมพัฒนา,
partner_shipper_central_20,เอกชัยขนส่ง ราชบุรี,central,52 ถ.รษยินดี อ.เมือง จ.ราชบุรี,,,กรุงเทพฯ,base.th,03-2337523,,,TRUE,,ราชบุรี,
partner_shipper_central_21,PLแอนด์ PN ขนส่งด่วน,central,พุทธมณฑลสาย3 ซอย6 ,,,กรุงเทพฯ,base.th,,,,TRUE,,อยุธยา หนองแค หินกอง วิหารแดง อ.บ้านนา จ.นครนายก จ.ปราจีน จ.สระแก้ว อ.เมืองสระบุรี อ.แก่งคอย อ.เสาไห้ อ.เสริมพระเกียรติ อ.พระพุทธบาท อ.พัมนานิคม ซอย12 โคกตูน อ.เมืองลบบุรี อ.โคกสำโรง อ.หนองม่วง อ.บ้านหมี่ อ.ท่าว้ง อ.เมืงสิงห์บุรี อ.เมืองอ่างทอง,
partner_shipper_central_22,กิตติกมลขนส่ง,central,108/29 ถ.พุทธมณฑล สาย2 แขวงบางแคเหนือ เขตบางแค,,,กรุงเทพฯ,base.th,"02-80534956,01-9886875",,,TRUE,"ชัยภูมิ 04-4835153,01-7902761",ชัยภูมิ จัตุรัส หนองบัวระเหว บ้านค่าย ,
partner_shipper_central_23,มงลภานุกิจ บริการ,central,654 หมู่บ้านขุมทรัพย์นคร ถ.พุทธมณฑลสาย 3 ,แขวนศาลาธรรมสพน์ เขตทวีวัฒนา กรุงเทพฯ,,กรุงเทพฯ,base.th,"02-8880961,08-96920767,08-16360566",02-8880895,,TRUE,,"มหาชัย กระทุ่มแบน บ้านแพ้ว แม่กลอง อัมพวา บางคญฑี ดำเนินสดวก ราชบุรี นครปฐม กำแพงแสน บางเลน และบริการรับสินค้าด่วนเหมาคัน ด้วยรถบรรทุก 4 ล้อ, 6 ล้อ 10 ,ล้อ",
partner_shipper_central_24,ระยองพัฒนา (แผนกขนส่ง),central,140ซอย16/1 ถ.พุทธมณฑลสายสาม3 หมู่บ้านขุมทรัพย์ ,,,กรุงเทพฯ,base.th,"2229296  ,2225361",,,TRUE,"ระยอง611764,876091,876092,08-70085953",ระยอง,
partner_shipper_central_25,สุพรรณขนส่ง (ฮงเฮง)จำกัด,central,355 หน้าสถานีตำรวจจักรวรรดิ์ ถ.จักรววดิ์ กรุงเทพฯ,,,กรุงเทพฯ,base.th,"02-22444833,02-2224338",,,TRUE,"สุพรรบุรี (035)-511635,511637",สุพรรณบุรี,
partner_shipper_central_26,มงคลทรานสปรอร์ต,central,676 หมู่บ้านขุมทรัพย์นคร พุทธมณฑลสาย3 ,,,กรุงเทพฯ,base.th,02-88808899,038-476470,,TRUE,"ชลบุรี038-379588,081-37788869",ชลบุรี หนองมน สรีราชา อ่าวอุดม บางละมุง พัทยา บ่อบิน บึงไร่1 บ้านบึง พนัสนิคม ฯลฯ,
partner_shipper_central_27,เกาะโพธิ์ ขนส่ง,central,280 ม.12 ขุมทรัพย์นคร ซ.16/3 ถ.พุทธมณฑลสาย3 ซ.3 ,แขวงศาลาธรรรมสพน์ เขตทวีพัฒนา กรุงเทพฯ,,กรุงเทพฯ,base.th,02-8881939,,,TRUE,,,
partner_shipper_central_28,นิวมิตรพัฒนา ขนส่ง,central,221 ตลาดขุมทรัพย์นคร ถ.พุทธมณฑลสาย3 แขวงศาลาธรรมสพน์,เขตทวีวัฒนา กรุงเทพฯ,,กรุงเทพฯ,base.th,"02-888-0071,02-888-1372",,,TRUE,ราชบุรี02-888-0084,ปากท่อ ดำเนินฯ บานโป่ง บ้านแพ้ว แม่กลอง อัมพวาโพธาราม เขาขวาง หนองปลาหมอ เพชรบุรี เขาย้อย ท่ายาง ราชบุรี จอมบึง,
partner_shipper_central_29,ส.บ้านโป่ง-กาญจนบุรี,central,109/1หมู่4ต.เบิกไพร อ.บ้านโป่ง จ.ราชบุรี,,,กรุงเทพฯ,base.th,01-5721328,,,TRUE,,ราชบุรี,
partner_shipper_central_30,รุ่งเรืองทรัพย์ ขนส่ง,central,45 หมู่6 ต.เขาฉกรรจ์ อ.เขาฉกรรจ์ จ.สระแก้ว,,,กรุงเทพฯ,base.th,"084-7748779,085-688-0438,089-5457962",,,TRUE,,องครักษ์- บ้านนา -นครนายก- ศรีมหาโพธิ์ -ปราจีนบรี- ประจีนตะคาม- กบินทร์บุรี- สระแก้ว -ท่าเกษม- วัฒนานคร -อรัญประเทศ- เขาแกรรจ์- วังน้ำเย็น -วังสมบูรณ์- คลองหาด- ทับช้าง -สอยดาว,
partner_shipper_central_31,พี.อนุสรณ์ตะวันออกขนส่ง ,central,59/305 หมู่19 ถ.พุทธมณฑลสาย2 ซ.24 แขวงศาลาธรรรมสพน์ ,,,กรุงเทพฯ,base.th,02-88580334,,,TRUE,จันทบุรี 039-3505367 ระยอง038-887189,จันทบุรี  ระยอง,
partner_shipper_central_32,ศศิพิมพ์ โชคประเสร็ฐ ขนส่ง,central,269/15 ถ.สุขุมวิท อ.แกลง จ.ระยอง,เขตทวีวัฒนา กรุงเทพฯ,,กรุงเทพฯ,base.th,"03-8671609,08-17152782",03-8675106,,TRUE,,ระยอง,
partner_shipper_central_33,ราชบรีรุ่งเรือง ขนส่ง ,central,3/28 ม.10 ซอยสนามกีฬาพาณิชย์ราชดำเนิน ถ.ทวีพัฒนา ,พุทธมณฑลสาย2 แวงทวีวัฒนา เขตรทวีพัฒนา,,กรุงเทพฯ,base.th,"02-8872301,086-3248835,086-3345669",,,TRUE,"กาญจนบุรี034-543348,086-3345669",นครปฐม ราชบุรี กาญจนบุรี,
partner_shipper_central_34,ยิ่งเจริญขนส่ง,central,10/30พุทธมณฑลสาย2 ศูนย์รวมขนส่ง2 ถ.บางแวก,,,กรุงเทพฯ,base.th,"02-4103126,02-8871039",,,TRUE,"สุพรรบุรี 01-8759741,(035)532208",กำแพงแสน ทุ่งคอก บางลี่ บางเลน บางซอ ลาดบัวหลวง ,
partner_shipper_central_35,แก้วบางลี่ขนส่ง,central,108/19หมุ่4พุทธมณฑลสาย2 หมู่บ้านริมธาร บางแครเหนือ ภาษีเจริญ กรุงเทพฯ,,,กรุงเทพฯ,base.th,02-8053490,,,TRUE,"สุพรรณบุรี035-531244,081-8396867,086-5290904",กำแพงแสน ทุ่งคอก บางลี่ บางเลน บางซอ บางสาม วัดไผ่ สวนแตง บางปลาม้า สุพรรรบุรี(อ.เมือง),
partner_shipper_central_36,พรอำนวยขนส่ง,central,190ม.1 ต.ปะตง อ.สอยดาว จ.จันทบุรี,,,กรุงเทพฯ,base.th,"0-3938-4-1113,0-3942-1579",,,TRUE,,จันทบุรี-สระแก้ว,
partner_shipper_central_37,ชนะโชคบริการขนส่ง,central,701ศูนย์การค้าเจพีวาไรวา ข้างโรงแรมอิสเทอร์น 9 ชั้น,,,กรุงเทพฯ,base.th,"039-311737,322804",,,TRUE,,หนองคล้า-หัวสะท้อน-ท่าใหม่-จันทบุรี-มะขาม-ขลุง,
partner_shipper_central_38,พี.เอส.พี.จันทบุรี ทรานสปอร์ต,central,36/67 หม่7 ตำบลเกาะขวาง อำเภอเมือง จัวหวัดจันทบุรี,,,กรุงเทพฯ,base.th,"081-5898528,089-2132288,081-9963282",,,,"จันทบุรี081-5898928,089-2132288,081-9963282",กรุงเทพ-จันทบุรี-ตราด,
partner_shipper_central_39,สหมิตรเดินรถจันทบุรี,central,1107 เชิงสะพานวัดปทุมคงคา ถนนทรงวาด กรุงเทพมหานคร    ,,,กรุงเทพฯ,base.th,"2336282,2342524,02-2336627",,,,,ระยอง-จันทบุรี-ตราด ,
partner_shipper_central_40,ห้างหุ้นส่วนจำกัดสาครลำเลียง(ภาคกลางขนส่ง),central,923/419วอยสามมิตร ถ.เศรษฐกิจ1 ต.มหาชัย อ.เมือง จ0สมุทรสาคร,,,กรุงเทพฯ,base.th,"034-411092,034-421590",034-810669,,,"กรุงเทพฯ089-48962207,02-2219741",กรุงเทพน มหาชัย กระทุ่มแบน ท่าฉลอง บ้านแพ้ว หลักสาม,
partner_shipper_central_41,ป๋อเชียงขนส่ง,central,10/35 หมุ่9 ถนนสายบางแวก เขตภาษีเจริญ กรุงเทพฯ,,,กรุงเทพฯ,base.th,02-4103125,,,,"ส.พ.035-502076,อ.ท.035-5512226,อ.ท.035-551718",สระกระโจม บางลี่ อุ่ทอง ตลาดเขต สุพรรณบุรี คอวัง ด่านช้าง โพธิ์พระยา สวนแตง ศรีประจันต์ ดอนเจดีย์ สามชุก ท่าช้าง เก้าห้อง บางปลาม้า ,
partner_shipper_central_42,ช.รุ่งเรืองขนส่งชลบุรี,central,20/15 ถ.เจริยเมือง ตรงข้ามวัดดวงแข ข้างหัวลำโพง เขตปทุมวัน กทม.,,,กรุงเทพฯ,base.th,02-2158890,,,,ชลบุรี038-284239,ชลบุรี,
partner_shipper_central_43,สินไทยเดินรถขนส่ง,central,26 ถ.ไมตรีจิตร วอยกรกฎาคม 1 วงเวียน22 เขตป้อมปราบ กรุงเทพฯ   ,,,กรุงเทพฯ,base.th,"081-8527013,02-776485194",036-323322,,,สระบุรี 036-266512,กรุงเทพฯ-ลพบุรี พระบาท หน้าพระลาน เฉลิอมพระเกียรติ หนองโดน บ้านหมอ ท่าเรือ พุแค รับเหมาทั่วไป รวดเร็ว ,
partner_shipper_central_44,รถแดงขนส่งอยุธยา,central,12 ถ.สันติภาพ ซอย4 ,,,กรุงเทพฯ,base.th,02-2245404,,,,อยุธยา 035-252584,อยุธยา,
partner_shipper_central_45,นิว สองอัศวิน,central,1ซอยนานา ถนนไมตรีจิตร (วงเวียน22),,,กรุงเทพฯ,base.th,02-6232014,,,,"ระยอง 01-429932,038-87616",ระยอง กระเฉด มาบตาพุด บ้านคาย บ้านแพ บ้านฉาง แกลง(สามย่าน) ,
partner_shipper_central_46,สินทองพี่น้องขนส่ง น.ฐ.สาขา2,central,10/26 ถ.บางแวก แขวงบางไผ่ เขตภาษีเจริญ สี่แยกทศกรรณ,,,กรุงเทพฯ,base.th,02-4482938,,,,"นครปฐม 034-252788,252967",นครปฐม สามพราน ท่านา นครชียศรี กำแพงแสน ดอนตูม บางเลน,
partner_shipper_central_47,MSขนส่งด่วนพิเศษ,central,1716 ถ.กรุงเกษม รตรงข้ามโรงจอดรถหัวลำโพง กรุงเทพฯ,,,กรุงเทพฯ,base.th,06-1217672,,,,"นครนายก 06-9893171,09-0990782",นรนายก-ปราจีนบุรี-สระแก้ว-กบินทร์-ประจันตคาม,
partner_shipper_central_48,ชวาลกิตขนส่ง,central,107ถ.304กม.ที่31 ฉะเชิงเทรา-พนมสารคาม หมุ่ที่4 ต.เมืองเก่า อ.พนมสารคาม ,,,กรุงเทพฯ,base.th,"038-8366034,038836603",,,,"กทม.02-2812559,02-2813839",ฉะเชิงเทรา บางคล้า แปลงยาว พนมฯ สนามชัยฯ ปราจีนฯ บ้านสร้าง ศรีมโหสถ ศรีมหาโพธิ์ จันตคาม กบินทร์ฯ นาดี สระแก้ว เขาฉกรรจ์ วังน้ำเย็น วังสมบูรณ์ วัฒนาฯ อรัญฯ นครนายก บ้านนา องครักษ์ ,
partner_shipper_central_49,ส.สมจิตรขนส่ง,central,10/34 ถ.บางแวก แขวงบางไผ่ เขตบางแค กรุงเทพฯ ,,,กรุงเทพฯ,base.th,02-4103121,,,,,กรุงเทพฯ,
partner_shipper_central_50,ไทยพรชัยขนส่ง ,central,23/3 พระราม6ซอย5 แขวงรอบเมือง เขตประทุม กรุงเทพฯ,,,กรุงเทพฯ,base.th,"02-2159251,086-8858866",,,,,อ่างทอง โพธิ์ทอง วิเศษ ป่าโมก ฉะเชิงเทรา (แปดริ้ว) บางบ่อ บางบัว บางปะกง บางคล้า พนมฯ,
partner_shipper_central_51,PBขนส่งด่วนสุพรรณ,central,23/6 ถ.พระราม6ซอย5 (ผรองเมืองซอย3เก่า) ปทุมว้น กทม. ,,,กรุงเทพฯ,base.th,084-3318389,,,,สุพรรรบุรี084-52709437,อ.เมือง บางปลาม้า สวนแตง โพธิ์พยา โพธิ์คอย อู่ยา ดอยแจง ท่าเสด็จ สระแก้ว บ้านสุด ลาดบัวหลาว ลาดหลุมแก้ว,
partner_shipper_central_52,ส.รุ่งโรจน์ เซอร์วิส,central,23/6ถ.พระราม6ซอย5 (รองเมืองซ.3เก่า) ปทุมวัน กทม.,,,กรุงเทพฯ,base.th,"088-0138896,089-0388433,02-6137348,084-5279437",,,,,เกาะขนน สนามชัยเขต แปลงยาวเขาหินซ้อน มีนบุรี หนองจอก คลองสามวา นิมิตรใหม่ ลำลุกคลอง7-คลอง16 บางคล้า บางน้ำเปรี้ยว,
partner_shipper_central_53,เค แอนดื วี เชอร์วิส ขนส่งด่วน,central,รองเมืองซอย 7 (ตรงลานจอดรถ),,,กรุงเทพฯ,base.th,087-0535488,,,,ฉะเชิงเทรา 086-02000148,ฉะเชิงเทรา: แปดริ้ว  สุวินทวงศ์ มีนบุรี,
partner_shipper_central_54,ใบตราขนส่ง สระบุรีทงเฮงขนส่ง,central,207/1ถ.พุทธมณฑลสาย3 แขวงาลาธรรมสพน์ เขตทวีพัฒนา กรุงเทพมหานคร,,,กรุงเทพฯ,base.th,"02-44146413,03-6211981",,,,สระบุรี 03-6221318,สระบุรี,
partner_shipper_central_55,พี พี ขนส่งด่วน,central,11/2ถ.พระราม6 (สะพานยศเสห้องที่3)รองเมือง ปทุมวัน กทม.,,,กรุงเทพฯ,base.th,"02-216168,083-0821026",,,,"จันทบุรี039-302941,081-6435591,086-8452816,089-4159116 ปราจีนบุรี086-8396178,0894022043 สระแก้ว089-7413092,0850922019,081-7176503,082-3882936",จันทบุรี ปราจีนบุรี สระแก้ว,
